id,title,description,streetAddress,postalCode,addressLocality,telefonos,fax,email,url,image,logo,socioHoreca,accesibilidad,comment,categoria,habitaciones,camas,geometry,lastUpdated,link
"http://www.zaragoza.es/api/recurso/turismo/alojamiento/1068","HOTEL DELICIAS","C/ Sangenis, 13 <strong><abbr title=""Teléfono"">Tel.:</abbr></strong> 876 28 02 25","C/ Sangenis, 13","50010","Zaragoza","876 28 02 25","","reservas@hoteldeliciaszaragoza.com","http://www.zaragozahoteldelicias.com","","","true","<div><img src=""/cont/paginas/sinbarreras/img/icono_silla1.jpg"" alt=""""/> Accesible</div><ul><li><strong>Aparcamiento</strong>: No tiene plazas reservadas</li><li><strong>Acceso</strong>:Entrada adaptada por Pº. Calanda, 28, (hay que salvar un escalón de unos 4 cm.). Puertas no automáticas. Mostrador de información no adaptado</li><li><strong>Movilidad en el interior del edificio:</strong><ul><li><strong>Zonas comunes:</strong><ul><li> Servicio de cafetería: con barra sin adaptar en altura, pero ofrecen servicio de mesas, espacios amplios para la movilidad.</li><li>Espacios Amplios: Sí. Pavimento antideslizante.</li><li>Ascensor Adaptado:Sí. adaptado, botonera en relieve, barra de apoyo</li></ul></li><li><strong>Habitaciones:</strong><ul><li> Habitaciones Adaptadas: Una.</li><li>Espacios Amplios: Sí, no hay dificultad de giro</li><li>Aseos Adaptados: Sí. Baño con ducha a ras de suelo. Asiento abatible, inodoro con barras de apoyo, lavabo sin pedestal, y espejo inclinado</li></ul></li></ul></li></ul><p><em>Información facilitada por Disminuidos Físicos de Aragón</em></p>","Parking concertado.","Hotel 2 estrellas","40","68","674618.38 4613507.74",2016-06-21T00:00:00Z,"/ciudad/turismo/es/organiza-viaje/detalle_Alojamiento?id=1068&op=t"
"http://www.zaragoza.es/api/recurso/turismo/alojamiento/72","HOTEL EL PRÍNCIPE","C/ Santiago, 12 <strong><abbr title=""Teléfono"">Tel.:</abbr></strong> 976 29 41 01","C/ Santiago, 12","50003","Zaragoza","976 29 41 01","976 29 90 47","reservas@hotel-elprincipe.com","http://www.hotelelprincipezaragoza.es","","","true","","Hotel Restaurante situado en el Centro Histórico y Comercial de Zaragoza, junto a la Basílica del Pilar y la Catedral de la Seo. Dispone de salas para reuniones, internet inalámbrico WI-FI gratuito, habitaciones para no fumadores y parking concertado a 50 metros.

Todas las habitaciones cuentan con baño completo con secador de pelo, TV vía satélite, teléfono, minibar, climatización y conexión a internet sin cargo.
HABITACIONES DOBLES: 39
HABITACIONES INDIVIDUALES: 6


This Hotel-Restaurant is found in the historical-commercial centre of Zaragoza, next to the Basílica del Pilar and the la Seo cathedral. There are function rooms, free WiFi internet access, rooms for non-smokers and parking within 50 meters of the hotel.

All the rooms have en suite bathroom, hairdryer, satellite TV, telephone, minibar, air conditioning and free internet access.
DOUBLE ROOMS: 39
SINGLE ROOMS: 6","Hotel 3 estrellas","45","81","676719.04 4613905.13",2016-04-05T00:00:00Z,"/ciudad/turismo/es/organiza-viaje/detalle_Alojamiento?id=72&op=t"
"http://www.zaragoza.es/api/recurso/turismo/alojamiento/78","HOTEL DON JAIME 54","C/ Don Jaime I, 54-56 <strong><abbr title=""Teléfono"">Tel.:</abbr></strong> 976 294 322","C/ Don Jaime I, 54-56","50001","Zaragoza","976 294 322","976 203 031","info@hoteldonjaime54.es","http://http://www.hoteldonjaime54.es","","","true","","APERTURA SEPTIEMBRE 2015

Hotel situado junto a la Basílica de Nuestra Señora del Pilar y la Catedral de San Salvador «La Seo», de fácil acceso a las principales vías de comunicación, se encuentra ubicado en el centro neurálgico del sector comercial, cultural y de ocio de la ciudad.

- Cuenta con 78 confortables habitaciones con: - Baño completo. - TV. - Aire acondicionado. - Teléfono directo. - Caja fuerte.
- Parking próximo.
- Restaurante y cafetería.
- Así como salones de distinta capacidad para reuniones, convenciones, bodas y banquetes.

<ul><li>Parking concertado.</li><li>Admiten perros.</li></ul>

The Hotel is set in the very centre of Zaragoza, next to the Basílica de Nuestra Señora del Pilar and the La Seo, San Salvador Cathedral. It has direct access to all the main roads and is at the commercial, cultural and recreational heart of the city.
- There are 78 comfortable rooms with: En suite bathroom,  TV,  Air conditioning,  Direct dialling telephone,  Safe deposit box
- Parking nearby
- Restaurant and cafeteria.
- There are also function rooms for meetings, conferences, weddings and banquets.","Hotel 3 estrellas","66","117","676899.05 4613866.15",2016-10-20T00:00:00Z,"/ciudad/turismo/es/organiza-viaje/detalle_Alojamiento?id=78&op=t"
"http://www.zaragoza.es/api/recurso/turismo/alojamiento/1112","PENSIÓN JUANA","Avda. Navarra, 36, 1ºA <strong><abbr title=""Teléfono"">Tel.:</abbr></strong> 976 53 29 53","Avda. Navarra, 36, 1ºA","50017","Zaragoza","976 53 29 53","","","","","","true","","Habitación sin lavabo.","Pensión","4","7","674547.85 4613846.6",2016-04-06T00:00:00Z,"/ciudad/turismo/es/organiza-viaje/detalle_Alojamiento?id=1112&op=t"
"http://www.zaragoza.es/api/recurso/turismo/alojamiento/1117","HOSTAL CASTILLA","C/ López Allue, 2, 2º E y 3º F <strong><abbr title=""Teléfono"">Tel.:</abbr></strong> 976 55 86 26","C/ López Allue, 2, 2º E y 3º F","50005","Zaragoza","976 55 86 26","","maginyalicia@yahoo.es","","","","true","","También dispone de habitaciones con ducha","Hostal","14","19","675527.83 4612649.85",2016-04-06T00:00:00Z,"/ciudad/turismo/es/organiza-viaje/detalle_Alojamiento?id=1117&op=t"
"http://www.zaragoza.es/api/recurso/turismo/alojamiento/1118","HOSTAL AYBAR","C/ Conde Aranda, 142 <strong><abbr title=""Teléfono"">Tel.:</abbr></strong> 976 43 66 01","C/ Conde Aranda, 142","50003","Zaragoza","976 43 66 01","","info@hostalaybar.es","http://www.hostalaybar.es","","","true","","Habitación con baño o lavabo","Hostal","11","17","675515.78 4613967.6",2016-04-05T00:00:00Z,"/ciudad/turismo/es/organiza-viaje/detalle_Alojamiento?id=1118&op=t"
"http://www.zaragoza.es/api/recurso/turismo/alojamiento/1120","HOSTAL NAVARRA","C/ San Vicente de Paúl, 30, ppal. izda. <strong><abbr title=""Teléfono"">Tel.:</abbr></strong> 976 29 16 84","C/ San Vicente de Paúl, 30, ppal. izda.","50001","Zaragoza","976 29 16 84","976 29 16 84","hostalnavarra@hotmail.es","http://hnavarra.com","","","true","","Habitaciones con baño, ducha o lavabo","Hostal","13","22","677057.71 4613664.97",2016-04-06T00:00:00Z,"/ciudad/turismo/es/organiza-viaje/detalle_Alojamiento?id=1120&op=t"
"http://www.zaragoza.es/api/recurso/turismo/alojamiento/1122","HOSTAL SANTIAGO","C/ Santiago, 3 <strong><abbr title=""Teléfono"">Tel.:</abbr></strong> 976 39 45 50","C/ Santiago, 3","50003","Zaragoza","976 39 45 50","976 29 48 39","","","","","true","","Habitación con baño, ducha.","Hostal","11","17","676716.71 4613912.02",2016-04-06T00:00:00Z,"/ciudad/turismo/es/organiza-viaje/detalle_Alojamiento?id=1122&op=t"
"http://www.zaragoza.es/api/recurso/turismo/alojamiento/1124","HOSTAL AISA OCHOA","C/ Boggiero, 166, 2ºA y B <strong><abbr title=""Teléfono"">Tel.:</abbr></strong> 976 432 465","C/ Boggiero, 166, 2ºA y B","50003","Zaragoza","976 432 465","976 437 201","","http://www.hostalaisaochoa.es","","","true","","Habitaciones con baño","Hostal","21","39","675643.78 4614008.58",2016-04-03T00:00:00Z,"/ciudad/turismo/es/organiza-viaje/detalle_Alojamiento?id=1124&op=t"
"http://www.zaragoza.es/api/recurso/turismo/alojamiento/1125","HOSTAL EL DESCANSO","C/ San Lorenzo, 2 <strong><abbr title=""Teléfono"">Tel.:</abbr></strong> 976 29 17 41","C/ San Lorenzo, 2","50001","Zaragoza","976 29 17 41","976 29 17 41","hostaleldescansozgz@gmail.com","http://hostaleldescanso.wix.com/hostaleldescanso","","","true","","Habitación con lavabo","Hostal","22","31","676927.08 4613607.54",2016-04-06T00:00:00Z,"/ciudad/turismo/es/organiza-viaje/detalle_Alojamiento?id=1125&op=t"
"http://www.zaragoza.es/api/recurso/turismo/alojamiento/12600","HOTEL PILAR PLAZA (ANTIGUO HOTEL LAS TORRES)","Plaza del Pilar, 11 <strong><abbr title=""Teléfono"">Tel.:</abbr></strong> 976 39 42 50","Plaza del Pilar, 11","50001","Zaragoza","976 39 42 50","976 39 42 54","administracion@hotelpilarplaza.es","http://www.hotelpilarplaza.com","/cont/paginas/turismo/oficina/rsc/img/empresa/hotelpilarplaza.JPG","","true","","El Hotel Pilar Plaza está ubicado en un edificio del siglo XIX protegido en pleno centro histórico de Zaragoza y tiene vistas a la basílica del Pilar, situada junto al hotel.

Sus habitaciones presentan una decoración elegante y contemporánea en tonos blancos y disponen de aire acondicionado, cama extragrande, conexión Wi-Fi gratuita, TV de pantalla plana y baño privado con ducha de hidromasaje. Algunas tienen vistas al Pilar.
(Texto facilitado por el propio establecimiento en dic 2014)","Hotel 3 estrellas","51","94","676755.56 4613928.27",2016-04-05T00:00:00Z,"/ciudad/turismo/es/organiza-viaje/detalle_Alojamiento?id=12600&op=t"
"http://www.zaragoza.es/api/recurso/turismo/alojamiento/1128","HOSTAL EL CARMEN","Pº María Agustín, 13, 1º <strong><abbr title=""Teléfono"">Tel.:</abbr></strong> 976 21 11 00","Pº María Agustín, 13, 1º","50004","Zaragoza","976 21 11 00","","info@hostalelcarmen.com","http://www.hostalelcarmen.com","","","true","","Habitaciones con lavabo","Hostal","10","15","675879.65 4613313.37",2016-04-03T00:00:00Z,"/ciudad/turismo/es/organiza-viaje/detalle_Alojamiento?id=1128&op=t"
"http://www.zaragoza.es/api/recurso/turismo/alojamiento/14097","HOTEL RAUSÁN ALFAJARÍN","Ctra.Madrid-Barcelona, km.341 <strong><abbr title=""Teléfono"">Tel.:</abbr></strong> 976 10 00 02","Ctra.Madrid-Barcelona, km.341","50172","Alfajarín (Zaragoza)","976 10 00 02","976 10 10 17","hotelrausan@hotelrausan.com","http://www.hotelrausan.com","/cont/paginas/turismo/oficina/rsc/img/empresa/rausan_1.jpg","","true","","","Hotel 2 estrellas","42","78","",2016-08-01T00:00:00Z,"/ciudad/turismo/es/organiza-viaje/detalle_Alojamiento?id=14097&op=t"
"http://www.zaragoza.es/api/recurso/turismo/alojamiento/46","ILUNION HOTELS ROMAREDA S.A.","C/ Asín y Palacios, 11 <strong><abbr title=""Teléfono"">Tel.:</abbr></strong> 976 35 11 00","C/ Asín y Palacios, 11","50009","Zaragoza","976 35 11 00","976 35 19 50","reservasromareda@ilunionhotels.com","http://http://www.ilunionromareda.com/","/cont/paginas/turismo/oficina/rsc/img/empresa/Romar3.jpg","/cont/paginas/turismo/oficina/rsc/img/empresa/L_IlunionsRomareda.jpg","true","<p>Hotel certificado en Accesibilidad Universal por AENOR, Norma UNE 170.001-2</p>

<strong>Acceso: </strong>
<ul>
<li>Entrada adaptada con rampa (con pendiente) y elevador salva escaleras. (pendiente de colocar)</li>
<li>Puertas automáticas.</li></ul>
<strong>Movilidad en el interior del edificio: o Zonas comunes</strong>: 
<ul><li>Recepción con mostrador  adaptado en altura y con  bucles magnéticos para la comunicación. (discapacidad auditiva)</li>
<li>Internet point accesible</li>
<li>Espacios Amplios: Sí</li>
<li>Ascensor Adaptado: con señalización en braille y números luminosos, espejo y barras de apoyo, sintetizador de voz.</li>
<li>Puertas de 80 cm.. </li>
<li>Mecanismos manuales adaptados en altura</li>
<li>Cafetería: acceso y mesas adaptadas en altura con servicio personalizado. Menús para celíacos, diabéticos o con algún tipo de alergia alimentaria.</li>
<li>Restaurante: con autoservicio adaptado a personas con movilidad reducida.</li>
<li>Salones, accesos adaptados con rampa y barandillas, para diferentes eventos. </li>
<li>Aseos: adaptado en la planta -1, acceso con ascensor,  puerta corredera, el inodoro dispone de espacio para la transferencia lateral, dos barras de apoyo móviles, lavabo regulable en altura, grifo monomando con palanca, sistema de llamada de auxilio. </li>
</ul>
<strong>Habitaciones:</strong> 
<ul><li>Habitaciones Adaptadas: para personas con movilidad reducida y otras discapacidades sensoriales.</li>
<li>Puertas: Adaptadas en anchura.</li>
<li>Armario-Vestidor: Adaptados en altura, con espacios y perchas de palo. </li>
<li>Teléfono adaptado a discapacidad visual y auditiva</li>
<li>Espacios Amplios. Sí, no hay dificultad de giro.</li>
<li>Cama articulada para facilitar la movilidad.</li>
<li>Señales de aviso luminosas conectadas con el timbre.</li>
<li>Comunicador personalizado permanente con recepción para casos de emergencia (en habitaciones adaptadas). </li>
<li>Despertador adaptado a discapacidades auditivas.</li>
<li>Aseos Adaptados: Sí, ducha adaptada a cota cero con asiento abatible, grifos monomando . El inodoro adaptado con barras de apoyo  abatibles. Lavabo regulable con espejo inclinado y adaptado en altura.</li>
</ul>
<p>Más información en: <a href=""http://www.confortelhoteles.com/es/confortel/hoteles-accesibles-confortel/"">http://www.confortelhoteles.com/es/confortel/hoteles-accesibles-confortel/</a></p>","El HOTEL CONFORTEL  ROMAREDA**** cuenta con una ubicación excelente, ubicado en una zona tranquila próxima al centro de la ciudad, enfrente del estadio de fútbol de la Romareda y el Auditorio Palacio de Congresos. Además, está a pocos metros de la Universidad de Zaragoza, el Conservatorio Superior de Música de Aragón y los principales hospitales de la ciudad (Miguel Servet, clínico Lozano Biesa, clínica Quirón, clínica Montpellier).

- 90 habitaciones con terraza exterior.
- Wifi gratuito
- Minibar gratuito
- TV.
- Secador
- Amenities
- Servicio de lavandería
- Room service
- Internet point
- Cafetería
- Restaurante
- Salones para banquetes, convenciones, exposiciones, eventos familiares, etc
- Garaje


The HOTEL CONFORTEL ROMAREDA is located in a quiet area near the city centre, just in front of La Romareda football stadium and the Zaragoza Auditórium. It is very closed to Zaragoza University, High Music Conservatoire of Aragon and the main city Hospitals such as Miguel Servet, clínico Lozano Biesa, clínica Quirón and clínica Montpellier.

- 90 rooms with balcony

- Free Wifi

- Free water in minibar

- TV

- Hair dryer

- Amenities

- Laundry service

- Room service

- Internet point

- Cafeteria

- Restaurant

- Meeting rooms

- Parking","Hotel 4 estrellas","90","145","674718.63 4611906.0",2016-09-21T00:00:00Z,"/ciudad/turismo/es/organiza-viaje/detalle_Alojamiento?id=46&op=t"
"http://www.zaragoza.es/api/recurso/turismo/alojamiento/1069","PENSION LA PALMA","C/ Boggiero, 166, 3ºB. <strong><abbr title=""Teléfono"">Tel.:</abbr></strong> 976 43 24 65","C/ Boggiero, 166, 3ºB.","50003","Zaragoza","976 43 24 65","976 43 72 01","","","","","true","","Habitaciones con baño","Pensión","4","7","675640.69 4613999.29",2016-04-18T00:00:00Z,"/ciudad/turismo/es/organiza-viaje/detalle_Alojamiento?id=1069&op=t"
"http://www.zaragoza.es/api/recurso/turismo/alojamiento/12602","HOTEL SAUCE","C/ Espoz y Mina, 33 <strong><abbr title=""Teléfono"">Tel.:</abbr></strong> 976 20 50 50","C/ Espoz y Mina, 33","50003","Zaragoza","976 20 50 50","976 39 85 97","hotelsauce@hotelsauce.com","http://www.hotelsauce.com","","","true","","HOTEL SAUCE es un hotel pequeño y familiar. Con una ubicación inmejorable ya que se encuentra situado a tan sólo 50 metros de la Basílica del Pilar y en el corazón histórico y comercial de nuestra Zaragoza. Nuestro trato es amable: transmitimos alegría. 
Disponemos de los siguientes servicios: - Cafetería abierta las 24 horas del día y donde por las mañanas nuestros clientes pueden disfrutar de un delicioso desayuno buffet. - Un pequeño salón social donde nuestros clientes pueden ver canales de pago en la televisión , navegar sin coste alguno por Internet en nuestros dos ordenadores con conexión ADSL, o bien mantener reuniones de trabajo. - Lavandería. - Parking cerrado para nuestros clientes enfrente del hotel.
40 acogedoras habitaciones (29 dobles, 10 individuales, 1 suite). Todas las habitaciones disponen de baño completo con secador de pelo, teléfono, televisión con canal +, aire acondicionado y caja fuerte.



HOTEL SAUCE is a small, friendly establishment with an unbeatable location, just 50 metres from the Basílica del Pilar in the historic and commercial centre of Zaragoza. 
We offer a welcoming service: we spread happiness. 
Services: Cafeteria open 24 hours a day, where our clients can enjoy a delicious breakfast buffet.  A small lounge that can be used for meetings or social activities, with satellite TV and free broad band internet and computer access.  Laundry service. Private parking.
40 comfortable rooms (29 doubles, 10 singles, 1 suite); all rooms have en suite bathroom, hairdryer, telephone, TV with Canal +, air conditioning and safe deposit box.","Hotel 2 estrellas","20","36","676821.69 4613788.36",2016-04-05T00:00:00Z,"/ciudad/turismo/es/organiza-viaje/detalle_Alojamiento?id=12602&op=t"
"http://www.zaragoza.es/api/recurso/turismo/alojamiento/184","HOTEL LAS VENTAS","Autovia de Logroño, km.10,5 <strong><abbr title=""Teléfono"">Tel.:</abbr></strong> 976 77 04 82","Autovia de Logroño, km.10,5","50180","Utebo","976 77 04 82","","recepcion.lasventas@srhoteles.es","http://www.hotellasventas.com","/cont/paginas/turismo/oficina/rsc/img/empresa/I_Ventas.jpg","/cont/paginas/turismo/oficina/rsc/img/empresa/L_SrHoteles.jpg","true","","El hotel  Las Ventas está situado estratégicamente ya que está próximo al Aeropuerto de Zaragoza, al Parque empresarial PLAZA y a la Feria de Muestras y a tan sólo 10 km del Centro de la ciudad de Zaragoza y de la Estación Intermodal Delicias.

Luminoso, amplio y abierto a una zona ajardinada que cuenta con piscina exterior, pista de tenis y zona recreativa infantil es la mejor opción para quienes vienen buscando la tranquilidad y descanso sin renunciar al confort y servicios de un auténtico complejo hotelero. Además disponemos de un amplio parking exterior gratuito para todo tipo de vehículos y de muy fácil acceso.

El hotel Las Ventas tiene 58 habitaciones con wifi gratuito, aire acondicionado y calefacción, TV , mesa escritorio, teléfono y baño completo. Además dispone de una cafetería con una amplia variedad de tapas y bocadillos y con un menú semanal  . También podrás encontrar en su interior amplios salones con luz natural para celebrar cualquier tipo de reunión o comida en Utebo. Dentro del hotel ponemos a tu disposición wifi gratuito.
Tanto si vienes por trabajo como si estás de paso el Hotel Las Ventas hará que tu estancia sea especial por el trato personalizado que ofrecemos, por nuestras amplias instalaciones, por la tranquilidad del entorno y por nuestra buena comunicación con Zaragoza","Hotel 3 estrellas","58","100","667425.86 4618158.81",2016-09-21T00:00:00Z,"/ciudad/turismo/es/organiza-viaje/detalle_Alojamiento?id=184&op=t"
"http://www.zaragoza.es/api/recurso/turismo/alojamiento/189","HOTEL TIBUR","Pza. de la Seo, 2 y 3 <strong><abbr title=""Teléfono"">Tel.:</abbr></strong> 976 20 20 00","Pza. de la Seo, 2 y 3","50001","Zaragoza","976 20 20 00","","reservas@hoteltibur.com","http://www.hoteltibur.com","","","true","","Parking concertado.","Hotel 3 estrellas","66","125","676923.44 4613872.0",2016-04-05T00:00:00Z,"/ciudad/turismo/es/organiza-viaje/detalle_Alojamiento?id=189&op=t"
"http://www.zaragoza.es/api/recurso/turismo/alojamiento/1073","PENSIÓN IGLESIAS","C/ Verónica, 14 <strong><abbr title=""Teléfono"">Tel.:</abbr></strong> 976 29 31 61","C/ Verónica, 14","50001","Zaragoza","976 29 31 61","","","http://www.pensioniglesias.es","","","true","","Habitación con Medio-Baño, sin lavabo","Pensión","6","10","676809.91 4613495.16",2016-04-06T00:00:00Z,"/ciudad/turismo/es/organiza-viaje/detalle_Alojamiento?id=1073&op=t"
"http://www.zaragoza.es/api/recurso/turismo/alojamiento/1086","PENSIÓN TORRIJO","Avda. Tenor Fleta, 68, 3º B <strong><abbr title=""Teléfono"">Tel.:</abbr></strong> 976 38 55 40","Avda. Tenor Fleta, 68, 3º B","50007","Zaragoza","976 38 55 40","","pensiontorrijo@gmail.com","http://pensiontorrijo.com","","","true","","Habitaciones sin lavabo","Pensión","8","14","676769.75 4612004.98",2016-04-13T00:00:00Z,"/ciudad/turismo/es/organiza-viaje/detalle_Alojamiento?id=1086&op=t"
"http://www.zaragoza.es/api/recurso/turismo/alojamiento/1093","PENSIÓN ALOTUR","C/ Conde Aranda, 126, 4º dcha <strong><abbr title=""Teléfono"">Tel.:</abbr></strong> 976 43 20 74","C/ Conde Aranda, 126, 4º dcha","50003","Zaragoza","976 43 20 74","976 43 20 74","","","","","true","","Habitaciones con baño","Pensión","8","12","675623.15 4613948.33",2016-04-06T00:00:00Z,"/ciudad/turismo/es/organiza-viaje/detalle_Alojamiento?id=1093&op=t"
"http://www.zaragoza.es/api/recurso/turismo/alojamiento/1071","PENSIÓN LACASTA","C/ Fuenterrabía, 5, 7ºA <strong><abbr title=""Teléfono"">Tel.:</abbr></strong> 976 43 58 03","C/ Fuenterrabía, 5, 7ºA","50004","Zaragoza","976 43 58 03","","","","","","true","","Habitaciones sin lavabo","Pensión","6","11","675271.19 4613785.97",2016-04-13T00:00:00Z,"/ciudad/turismo/es/organiza-viaje/detalle_Alojamiento?id=1071&op=t"
"http://www.zaragoza.es/api/recurso/turismo/alojamiento/1072","PENSIÓN PALUD","C/ Calatorao, 2, 4º izq <strong><abbr title=""Teléfono"">Tel.:</abbr></strong> 976 43 73 23","C/ Calatorao, 2, 4º izq","50003","Zaragoza","976 43 73 23","","","","","","true","","Habitaciones con lavabo","Pensión","8","15","675627.93 4614014.96",2016-04-06T00:00:00Z,"/ciudad/turismo/es/organiza-viaje/detalle_Alojamiento?id=1072&op=t"
"http://www.zaragoza.es/api/recurso/turismo/alojamiento/1074","PENSIÓN FUENTERRABÍA","C/ Fuenterrabía, 5, 2º A <strong><abbr title=""Teléfono"">Tel.:</abbr></strong> 976 43 57 35","C/ Fuenterrabía, 5, 2º A","50004","Zaragoza","976 43 57 35","","","","","","true","","Habitaciones con lavabo","Pensión","6","11","675278.87 4613795.01",2016-04-05T00:00:00Z,"/ciudad/turismo/es/organiza-viaje/detalle_Alojamiento?id=1074&op=t"
"http://www.zaragoza.es/api/recurso/turismo/alojamiento/1076","PENSIÓN MIRAFLORES","C/ María Lostal, 25, 1-3. <strong><abbr title=""Teléfono"">Tel.:</abbr></strong> 976 21 74 72","C/ María Lostal, 25, 1-3.","50008","Zaragoza","976 21 74 72","976 07 89 68","info@hostalcumbre.com","http://www.hostalcumbre.com","","","true","","Habitación con lavabo","Pensión","7","10","676682.2 4612708.72",2016-04-13T00:00:00Z,"/ciudad/turismo/es/organiza-viaje/detalle_Alojamiento?id=1076&op=t"
"http://www.zaragoza.es/api/recurso/turismo/alojamiento/1078","PENSIÓN IRENE","Avda. Navarra, 36, 1ºD <strong><abbr title=""Teléfono"">Tel.:</abbr></strong> 976 53 29 53","Avda. Navarra, 36, 1ºD","50010","Zaragoza","976 53 29 53","","","","","","true","","Habitación sin lavabo.","Pensión","3","5","674547.16 4613842.19",2016-04-05T00:00:00Z,"/ciudad/turismo/es/organiza-viaje/detalle_Alojamiento?id=1078&op=t"
"http://www.zaragoza.es/api/recurso/turismo/alojamiento/1079","PENSIÓN SANTA GEMA","C/ Santander, 3 7ª planta. <strong><abbr title=""Teléfono"">Tel.:</abbr></strong> 976 35 30 90","C/ Santander, 3 7ª planta.","50010","Zaragoza","976 35 30 90","","","http://www.pensionsantagema.com/es/pension_zaragoza","","","true","","Habitaciones con baño o lavabo.","Pensión","16","23","675426.57 4613122.86",2016-04-13T00:00:00Z,"/ciudad/turismo/es/organiza-viaje/detalle_Alojamiento?id=1079&op=t"
"http://www.zaragoza.es/api/recurso/turismo/alojamiento/1081","HOSTAL PARAÍSO","Pº Pamplona, 23, 3º D <strong><abbr title=""Teléfono"">Tel.:</abbr></strong> 976 21 76 08","Pº Pamplona, 23, 3º D","50004","Zaragoza","976 21 76 08","976 21 76 07","info@hostal-paraiso.com","http://www.hostal-paraiso.com","","","true","","Habitación con medio baño","Hostal","39","64","676011.25 4613205.27",2016-04-13T00:00:00Z,"/ciudad/turismo/es/organiza-viaje/detalle_Alojamiento?id=1081&op=t"
"http://www.zaragoza.es/api/recurso/turismo/alojamiento/1083","PENSIÓN HOLGADO","C/ Conde Aranda, 126, 2º izda. y 5º izda. y dcha. <strong><abbr title=""Teléfono"">Tel.:</abbr></strong> 976 43 20 74","C/ Conde Aranda, 126, 2º izda. y 5º izda. y dcha.","50003","Zaragoza","976 43 20 74","976 43 20 74","","http://www.pensionholgado.com","","","true","","Habitaciones con baño o lavabo.","Pensión","14","20","675624.87 4613941.79",2016-04-06T00:00:00Z,"/ciudad/turismo/es/organiza-viaje/detalle_Alojamiento?id=1083&op=t"
"http://www.zaragoza.es/api/recurso/turismo/alojamiento/1095","PENSIÓN HOLGADO  II","C/ Conde Aranda 126, 3º Izda. <strong><abbr title=""Teléfono"">Tel.:</abbr></strong> 976 43 20 74","C/ Conde Aranda 126, 3º Izda.","50003","Zaragoza","976 43 20 74","","","http://www.pensionholgado.com","","","true","","Habitaciones con lavabo","Pensión","8","12","675630.72 4613945.57",2016-04-03T00:00:00Z,"/ciudad/turismo/es/organiza-viaje/detalle_Alojamiento?id=1095&op=t"
"http://www.zaragoza.es/api/recurso/turismo/alojamiento/1096","PENSIÓN TORRERO","C/ Fray Julián Garcés, 18, 1º y 2º planta. <strong><abbr title=""Teléfono"">Tel.:</abbr></strong> 976 27 23 21","C/ Fray Julián Garcés, 18, 1º y 2º planta.","50007","Zaragoza","976 27 23 21","","pensiontorrero@hotmail.com","http://www.pensiontorrero.es","","","true","","Habitaciones con lavabo","Pensión","10","11","676135.99 4611167.56",2016-04-13T00:00:00Z,"/ciudad/turismo/es/organiza-viaje/detalle_Alojamiento?id=1096&op=t"
"http://www.zaragoza.es/api/recurso/turismo/alojamiento/1097","PENSIÓN FORTEA","C/ Madre Sacramento, 45, pral. <strong><abbr title=""Teléfono"">Tel.:</abbr></strong> 976 28 22 29","C/ Madre Sacramento, 45, pral.","50004","Zaragoza","976 28 22 29","","","http://www.pensionfortea.com","","","true","","Habitaciones con baño o con ducha.","Pensión","14","18","675631.29 4613264.88",2016-04-06T00:00:00Z,"/ciudad/turismo/es/organiza-viaje/detalle_Alojamiento?id=1097&op=t"
"http://www.zaragoza.es/api/recurso/turismo/alojamiento/1101","HOTEL SAN JORGE","C/ Mayor, 4-6 <strong><abbr title=""Teléfono"">Tel.:</abbr></strong> 976 39 74 62","C/ Mayor, 4-6","50001","Zaragoza","976 39 74 62","976 39 85 77","jose@elpequenocatalan.com","http://www.zaragoza-ciudad.com/hotelsanjorge","","","true","","<ul><li>Parking propio.</li><li>Admiten perros pequeños.</li></ul>","Hotel 1 estrella","29","53","676856.65 4613751.24",2016-04-04T00:00:00Z,"/ciudad/turismo/es/organiza-viaje/detalle_Alojamiento?id=1101&op=t"
"http://www.zaragoza.es/api/recurso/turismo/alojamiento/1104","PENSIÓN ESTRELLA","Avda. Anselmo Clavé, 27, 1º <strong><abbr title=""Teléfono"">Tel.:</abbr></strong> 976 09 04 78","Avda. Anselmo Clavé, 27, 1º","50004","Zaragoza","976 09 04 78","","aestrella-hostal@gmail.com","http://www.hostalestrellazaragoza.com","","","true","","Habitaciones con ducha - lavabo","Pensión","12","19","675518.23 4613316.45",2016-04-06T00:00:00Z,"/ciudad/turismo/es/organiza-viaje/detalle_Alojamiento?id=1104&op=t"
"http://www.zaragoza.es/api/recurso/turismo/alojamiento/1108","PENSIÓN LUIS CANDELAS","C/ Maestro Mingote, 3, pral. izqda. <strong><abbr title=""Teléfono"">Tel.:</abbr></strong> 976 42 30 25","C/ Maestro Mingote, 3, pral. izqda.","50002","Zaragoza","976 42 30 25","976 59 17 60","","","","","true","","Habitaciones con lavabo","Pensión","4","5","678153.97 4613155.9",2016-04-06T00:00:00Z,"/ciudad/turismo/es/organiza-viaje/detalle_Alojamiento?id=1108&op=t"
"http://www.zaragoza.es/api/recurso/turismo/alojamiento/1109","PENSIÓN YOLI","C/ La Parra, 5 - Barrio de Casetas <strong><abbr title=""Teléfono"">Tel.:</abbr></strong> 976 77 27 35","C/ La Parra, 5 - Barrio de Casetas","50620","Casetas","976 77 27 35","976 77 27 35","info@mesonyoli.com","http://www.mesonyoli.com","","","true","","Habitaciones con lavabo","Pensión","9","11","664117.96 4620693.41",2016-04-13T00:00:00Z,"/ciudad/turismo/es/organiza-viaje/detalle_Alojamiento?id=1109&op=t"
"http://www.zaragoza.es/api/recurso/turismo/alojamiento/2124","HOTEL IBIS STYLES ZARAGOZA RAMIRO I","C/ Coso, 123 <strong><abbr title=""Teléfono"">Tel.:</abbr></strong> 976 29 82 00","C/ Coso, 123","50001","Zaragoza","976 29 82 00","976 39 89 52","H8521@accor.com","http://www.ibis.com/es/hotel-8521-ibis-styles-zaragoza-ramiro-i/index.shtml","","","true","<div><img alt="""" src=""/cont/paginas/sinbarreras/img/icono_acomp1.jpg""/> Accesible con Acompañante</div><ul><li><strong>Aparcamiento</strong>: No dispone</li><li><strong>Acceso</strong>: Entrada adaptada. Puertas automáticas</li><li><strong>Movilidad en el interior del edificio:</strong><ul><li><strong>Zonas comunes:</strong><ul><li> Las estancias de hotel, restaurante y cafetería son accesibles</li><li>Espacios Amplios: Sí</li><li>Ascensor Adaptado:Sí</li></ul></li><li><strong>Habitaciones:</strong><ul><li> Habitaciones Adaptadas: Dispone de 2</li><li>Puertas: Ancho 80 cm</li><li>Espacios Amplios. Sí, no hay dificultad de giro </li><li>Aseos Adaptados: Sí. Ducha a cota cero con banqueta. El wc tiene alza elevadora y cuenta con barra fija y abatible. El lavabo está suspendido en la pared. Espejo con suficiente inclinación</li></ul></li></ul></li></ul><p><em>Información facilitada por Disminuidos Físicos de Aragón</em></p>","69 habitaciones, renovadas en el 2002, con conexión a ordenador, tv interactiva, vía satélite, baño completo, secador de pelo, antena parabólica, minibar, servicio de lavandería y de habitaciones, aire acondicionado, calefacción, teléfono. Entre sus instalaciones se encuentran salones de convenciones, cafetería y garaje en el propio edificio. Establecimiento preparado para minusválidos. Admite animales","Hotel 3 estrellas","69","131","677093.0 4613461.71",2016-04-13T00:00:00Z,"/ciudad/turismo/es/organiza-viaje/detalle_Alojamiento?id=2124&op=t"
"http://www.zaragoza.es/api/recurso/turismo/alojamiento/27916","HOSTAL ARENAL","C/ Concepción Arenal, 5 <strong><abbr title=""Teléfono"">Tel.:</abbr></strong> 976 97 48 86","C/ Concepción Arenal, 5","50005","Zaragoza","976 97 48 86","","","http://www.hostalarenal.com","","","","","","Hostal","20","25","",2016-04-06T00:00:00Z,"/ciudad/turismo/es/organiza-viaje/detalle_Alojamiento?id=27916&op=t"
"http://www.zaragoza.es/api/recurso/turismo/alojamiento/13241","HOTEL COGULLADA","C/ Alberto Einstein, 3 - Polígono Cogullada <strong><abbr title=""Teléfono"">Tel.:</abbr></strong> 976 47 02 50","C/ Alberto Einstein, 3 - Polígono Cogullada","50014","Zaragoza","976 47 02 50","976 47 24 19","reservas@hotelcogullada.com","http://www.hotelcogullada.com","","","true","","Parking propio y aparcamiento para camiones y trailer.","Hotel 1 estrella","95","111","678094.12 4615620.66",2016-04-06T00:00:00Z,"/ciudad/turismo/es/organiza-viaje/detalle_Alojamiento?id=13241&op=t"
"http://www.zaragoza.es/api/recurso/turismo/alojamiento/153","HOTEL EL CISNE","Ctra. de Madrid - Barcelona N-II, Km.309. <strong><abbr title=""Teléfono"">Tel.:</abbr></strong> 976 33 20 00","Ctra. de Madrid - Barcelona N-II, Km.309.","50012","Zaragoza","976 33 20 00","976 33 22 05","info@hotelcisne.com","http://www.hotelcisne.com","","","true","<p><strong>Accesibilidad: </strong></p><ul><li>Dispone de 1 habitación adaptada para personas con movilidad reducida. </li></ul><p><em>Información facilitada por Disminuidos Físicos de Aragón</em></p>","El Hotel El Cisne se ha convertido en un moderno establecimiento, estratégicamente situado a 1 km de la Feria de Muestras y de la Plataforma Logística Plaza, así como a diez minutos del centro comercial de la ciudad, por lo que se encuentra en una localización ideal para sus reuniones, convenciones, 
Disponemos, a parte de amplios salones para reuniones y convenciones, de 68 confortables habitaciones, completamente equipadas.
- Amplios salones con capacidad de 10 a 400 personas. 
- Espaciosa zona de aparcamiento. 
- Acogedor entorno que ofrece amplias posibilidades.


The Hotel El Cisne is a modern establishment just 1 km from the Zaragoza Trade Fair and Exhibition Centre, the PLAZA logistics centre and ten minutes from the commercial centre of the city. It is an excellent location for meetings, conferences and similar events.
As well as the events and function rooms, there are 68 fully equipped bedrooms:

- Function rooms for 10 - 400 people 
- Large car park 
- A welcoming environment with many possibilities","Hotel 3 estrellas","69","118","665793.55 4610176.36",2016-04-06T00:00:00Z,"/ciudad/turismo/es/organiza-viaje/detalle_Alojamiento?id=153&op=t"
"http://www.zaragoza.es/api/recurso/turismo/alojamiento/12801","PENSION ROMA","C/ Duquesa Villahermosa, 4, esc. izda., 5º A-B-C, 6º B-C <strong><abbr title=""Teléfono"">Tel.:</abbr></strong> 976 33 81 31","C/ Duquesa Villahermosa, 4, esc. izda., 5º A-B-C, 6º B-C","50010","Zaragoza","976 33 81 31","976 32 79 54","mlj@shm.es","http://www.shm.es/pensionroma","","","true","","Habitaciones con baño, ducha o lavabo.","Pensión","20","30","675001.37 4613172.78",2016-04-05T00:00:00Z,"/ciudad/turismo/es/organiza-viaje/detalle_Alojamiento?id=12801&op=t"
"http://www.zaragoza.es/api/recurso/turismo/alojamiento/12818","ALBERGUE JUVENIL BALTASAR GRACIÁN","C/ Franco y López, 4 <strong><abbr title=""Teléfono"">Tel.:</abbr></strong> 976 30 66 92","C/ Franco y López, 4","50005","Zaragoza","976 30 66 92","976 71 68 52","balta@aragon.es","http://www.alberguesdearagon.com","","","true","","Teléfono de reservas: 902 08 89 05","Albergue","12","46","674954.44 4612845.73",2015-04-11T00:00:00Z,"/ciudad/turismo/es/organiza-viaje/detalle_Alojamiento?id=12818&op=t"
"http://www.zaragoza.es/api/recurso/turismo/alojamiento/180","HOTEL AVENIDA","Avda. César Augusto, 55 <strong><abbr title=""Teléfono"">Tel.:</abbr></strong> 976 43 93 00","Avda. César Augusto, 55","50003","Zaragoza","976 43 93 00","976 43 93 64","info@hotelavenida-zaragoza.com","http://www.hotelavenida-zaragoza.com","","","true","<div><img src=""/cont/paginas/sinbarreras/img/icono_silla1.jpg"" alt=""Accesible""/> Accesible </div><ul><li><strong>Aparcamiento</strong>: Plazas concertadas con el Parking Cesaraugusta </li><li><strong>Acceso</strong>:  A Cota cero. Puerta automática adaptada en anchura </li><li><strong>Movilidad en el interior del edificio:</strong><ul><li><strong>Zonas comunes:</strong><ul><li> Recepción con mostrador adaptado en altura</li><li>Espacios Amplios: Sí</li><li>Espacios Amplios: Pavimento antideslizante</li><li>Ascensor Adaptado: Sí. Con barras. Botonera adaptada en altura y numeración en  braille. Bien iluminado.</li><li>Cafetería/Restaurante: Acceso adaptado. Mesas adaptadas en altura.     </li></ul></li><li><strong>Habitaciones:</strong><ul><li>Habitaciones Adaptadas: Dispone de 1.</li><li>Puertas: Adaptadas en anchura.</li><li>Espacios Amplios. Sí, no hay dificultad de giro </li><li>Aseos Adaptados: Sí.  Ducha a cota cero con barras y silla auxiliar. El wc con barras abatibles y espacio para transferencia lateral. Lavabo suspendido y espejo inclinado</li></ul></li></ul></li></ul><p><em>Información facilitada por Disminuidos Físicos de Aragón</em></p>","","Hotel 2 estrellas","91","155","676284.39 4613869.81",2016-04-05T00:00:00Z,"/ciudad/turismo/es/organiza-viaje/detalle_Alojamiento?id=180&op=t"
"http://www.zaragoza.es/api/recurso/turismo/alojamiento/5306","HOTEL GRAN VÍA","Pº Gran Vía, 38 <strong><abbr title=""Teléfono"">Tel.:</abbr></strong> 976 22 92 13","Pº Gran Vía, 38","50005","Zaragoza","976 22 92 13","976 22 92 13","info@granviahotel.com","http://www.granviahotel.com","","","true","<div><img src=""/cont/paginas/sinbarreras/img/icono_silla1.jpg"" alt=""Accesible""/> Accesible </div><ul><li><strong>Aparcamiento</strong>: Concertado con el parking de Hernán Cortés. Con plazas reservadas.</li><li><strong>Acceso</strong>: Rampa a ras del suelo. Doble Puerta abatible.  </li><li><strong>Movilidad en el interior del edificio:</strong><ul><li><strong>Zonas comunes:</strong><ul><li> Recepción con mostrador no adaptado en altura</li><li>Espacios Amplios: Sí</li><li>Ascensor Adaptado: Sí</li><li>Pasillo con moqueta  </li><li>Cafetería/Restaurante: Acceso al ras sin puertas. Buffet desayuno adaptado en altura</li><li>Aseo adaptado unisex en planta -1</li></ul></li><li><strong>Habitaciones:</strong><ul><li>Habitaciones Adaptadas: Dispone de 1.</li><li>Puertas: Adaptadas en anchura.</li><li>Armarios: Adaptados</li><li>Espacios Amplios. Sí, no hay dificultad de giro </li><li>Aseos Adaptados: Sí. Ducha de hidromasaje cota cero con barras y&nbsp; banqueta regulable en altura . El wc con adaptado con barra fija y abatible. Lavabo suspendido y espejo inclinado</li></ul></li></ul></li></ul><p><em>Información facilitada por Disminuidos Físicos de Aragón</em></p>","Ofrece desayunos sin gluten","Hotel 3 estrellas","44","68","675730.71 4612763.97",2016-04-13T00:00:00Z,"/ciudad/turismo/es/organiza-viaje/detalle_Alojamiento?id=5306&op=t"
"http://www.zaragoza.es/api/recurso/turismo/alojamiento/1102","HOTEL CATALONIA EL PILAR","C/ Manifestación, 16 <strong><abbr title=""Teléfono"">Tel.:</abbr></strong> 976 20 58 58","C/ Manifestación, 16","50003","Zaragoza","976 20 58 58","","elpilar@hoteles-catalonia.es","http://www.hoteles-catalonia.es","","","true","<div><img src=""/cont/paginas/sinbarreras/img/icono_acomp1.jpg"" alt=""Accesible con Acompañante""/> Accesible con Acompañante</div><ul><li><strong>Aparcamiento</strong>: No     </li><li><strong>Acceso</strong>: Rampa con escalón salvable con acompañante. Puerta principal giratoria con escalón. Puerta accesible por la cafetería, se abre por dentro.</li><li><strong>Movilidad en el interior del edificio:</strong><ul><li><strong>Zonas comunes:</strong><ul><li> Recepción con mostrador  adaptado: Sí</li><li>Espacios Amplios: Sí</li><li>Ascensor Adaptado: Sí. Buena iluminación y marcador visual</li><li>Cafetería/Restaurante:  Acceso mediante ascensor planta ¿1 al restaurante y buffet. Acceso cafetería planta calle rampa con escalón que se abre desde dentro</li></ul></li>        <li><strong>Habitaciones:</strong>  <ul>            <li> Habitaciones Adaptadas: Dispone de 1.</li>            <li>Puertas: Adaptadas en anchura.</li>       <li>Armario-Vestidor: Adaptados en altura pero algo estrechos para realizar el giro</li>          <li>Espacios Amplios. Sí, no hay dificultad de giro </li><li>Aseos Adaptados: Sí. Ducha con pequeño bordillo salvable sin barras con banqueta . El wc adaptado con barra fija y abatible. Lavabo suspendido con espejo adaptado en altura</li>        </ul></li></ul></li></ul><p><em>Información   facilitada por Disminuidos Físicos de Aragón</em></p>","","Hotel 4 estrellas","65","125","676536.11 4613962.16",2016-04-06T00:00:00Z,"/ciudad/turismo/es/organiza-viaje/detalle_Alojamiento?id=1102&op=t"
"http://www.zaragoza.es/api/recurso/turismo/alojamiento/14576","HOTEL TRYP ZARAGOZA","Avda. Francia, s/n <strong><abbr title=""Teléfono"">Tel.:</abbr></strong> 976 28 79 50","Avda. Francia, s/n","50003","Zaragoza","976 28 79 50","976 28 79 51","tryp.zaragoza@solmelia.com","http://http://www.tryphotels.com/es/hotel-tryp-zaragoza-espana.html","/cont/paginas/turismo/oficina/rsc/img/empresa/036.%20Hotel%20Tryp.png","/cont/paginas/turismo/oficina/rsc/img/empresa/036.%20L_H.%20Tryp.jpg","true","<p><strong>Accesibilidad Física: </strong></p><div><img alt=""Icono de accesible"" src=""/cont/paginas/sinbarreras/img/icono_silla1.jpg""/> Accesible</div><ul><li><strong>Aparcamiento</strong>: 2 plazas reservadas (falta la señalización vertical). Acceso directo al hotel mediante ascensor adaptado.</li><li><strong> Acceso</strong>:  Entrada con rampa y un poco de pendiente. Doble puertas automáticas. Mostrador no adaptado (altura).</li><li><strong>Movilidad en el interior del edificio</strong><ul><li><strong> Zonas Comunes</strong><ul><li>Espacios amplios: Sí</li><li>Cafetería: Adaptada</li><li> Zona de desayunos: Adaptada.</li><li>Restaurante: Adaptado.</li><li>Salones: Adaptados.</li><li>Aseo Adaptado: Sí, para ambos sexos.</li><li> Ascensor Adaptado: Sí. Con barras.</li><li>Otros: Pavimento de Parquet y alguna alfombra incrustada. Pasillos amplios y libres de obstáculos.</li></ul></li><li><strong>Habitaciones </strong>:<ul><li>Habitaciones Adaptadas: 7. </li><li>Espacios amplios: Sí, no hay dificultad de giro (1.50 cm.). Espacio libre de paso de 80 cm.</li><li>  Armarios: No adaptados. Cajones y baldas (altura 50 y 120 cm.)</li><li>  Aseo Adaptado: Sí. Espacio libre de giro (1,50 cm.). Inodoro a la altura (dificultad en la transferencia lateral). Lavabo sin pedestal y ducha a cota cero.</li></ul></li></ul></li></ul><p><strong>Accesibilidad Sensorial</strong></p><ul><li><strong>Movilidad en el interior del edificio</strong><ul><li><strong> Zonas Comunes</strong><ul><li> Ascensor Adaptado: Sí, botonera  en braille, buena iluminación.</li></ul></li></ul></li></ul>
<p><em>Información facilitada por Disminuidos Físicos de Aragón</em></p>","Inaugurado en octubre de 2007","Hotel 4 estrellas","162","321","674344.55 4614495.0",2016-09-21T00:00:00Z,"/ciudad/turismo/es/organiza-viaje/detalle_Alojamiento?id=14576&op=t"
"http://www.zaragoza.es/api/recurso/turismo/alojamiento/24011","ALBERGUE DEL CAMPING CIUDAD DE ZARAGOZA","Calle San Juan Bautista de la Salle, s/n <strong><abbr title=""Teléfono"">Tel.:</abbr></strong> 876 24 14 95","Calle San Juan Bautista de la Salle, s/n","50012","Zaragoza","876 24 14 95","876 24 12 86","info@campingzaragoza.com","http://www.campingzaragoza.com","/cont/paginas/turismo/oficina/rsc/img/empresa/albeguegracijo1.jpg","","","","El albegue se encuentra situado dentro del Camping Ciudad de Zaragoza y se puede disfrutar de todos los servicios del camping.","Albergue","11","54","666871.25 4607702.06",2015-04-10T00:00:00Z,"/ciudad/turismo/es/organiza-viaje/detalle_Alojamiento?id=24011&op=t"
"http://www.zaragoza.es/api/recurso/turismo/alojamiento/202","HOTEL ZARAGOZA ROYAL","C/ Arzobispo Domenech, 4 <strong><abbr title=""Teléfono"">Tel.:</abbr></strong> 976 21 46 00","C/ Arzobispo Domenech, 4","50006","Zaragoza","976 21 46 00","976 22 03 59","recepción.royal@aa-hoteles.com","http://www.aa-hoteles.com/hoteles/landing-hotel-zaragoza-royal/","","","true","","El Hotel HUSA Zaragoza Royal está situado en el centro de la ciudad a sólo 10 minutos del aeropuerto, dispone de un espacioso garaje con 77 plazas. El Hotel ofrece a sus clientes un bar-cafetería muy acogedor, un restaurante con excelente cocina regional e internacional y espaciosas salas donde celebrar banquetes conferencias y reuniones.
Dispone de 92 habitaciones (84 doble y 8 individuales) con baño completo, aire acondicionado, teléfono directo, TV con antena parabólica, canal plus, mini-bar, caja de seguridad, secador de pelo.

<ul><li>Parking Propio.</li></ul>


The Hotel HUSA Zaragoza Royal is situated in the city centre, ten minutes from the airport. It has private parking for 77 cars. The Hotel has a comfortable bar-cafeteria, an excellent restaurant serving regional and international cuisine and spacious function rooms for banquets, conferences and meetings.
There are 92 rooms (84 double and 8 single) with en suite bathroom, air conditioning, direct dialling telephone, satellite TV, Canal +, mini-bar, safe deposit box and hair dryer.","Hotel 3 estrellas","92","168","675998.54 4612781.6",2016-10-20T00:00:00Z,"/ciudad/turismo/es/organiza-viaje/detalle_Alojamiento?id=202&op=t"
"http://www.zaragoza.es/api/recurso/turismo/alojamiento/27917","PENSIÓN CASA PITA","C/ San Miguel, 30 - Barrio de Casetas <strong><abbr title=""Teléfono"">Tel.:</abbr></strong> 976 771 578","C/ San Miguel, 30 - Barrio de Casetas","50620","Zaragoza","976 771 578","","info@casapita.es","http://www.casapita.es","","","","","","Pensión","4","8","",2016-04-06T00:00:00Z,"/ciudad/turismo/es/organiza-viaje/detalle_Alojamiento?id=27917&op=t"
"http://www.zaragoza.es/api/recurso/turismo/alojamiento/16223","CAMPING SAVIÑÁN PARK","Ctra El Frasno - Morés km 7 <strong><abbr title=""Teléfono"">Tel.:</abbr></strong> 976 82 54 23","Ctra El Frasno - Morés km 7","","Saviñán","976 82 54 23","976 82 54 23","info@campingsavinan.com","http://www.campingsavinan.com","","","true","","Categoría 2ª
Abierto todo el año","Camping","0","400","",2016-04-14T00:00:00Z,"/ciudad/turismo/es/organiza-viaje/detalle_Alojamiento?id=16223&op=t"
