PK;NOMBRE;DESCRIPCION-ENTIDAD;HORARIO;EQUIPAMIENTO;TRANSPORTE;DESCRIPCION;ACCESIBILIDAD;CONTENT-URL;NOMBRE-VIA;CLASE-VIAL;TIPO-NUM;NUM;PLANTA;PUERTA;ESCALERAS;ORIENTACION;LOCALIDAD;PROVINCIA;CODIGO-POSTAL;BARRIO;DISTRITO;COORDENADA-X;COORDENADA-Y;LATITUD;LONGITUD;TELEFONO;FAX;EMAIL;TIPO;
139451;"Auditorio y sala de exposiciones Paco de Lucía (antigua Sala Latinarte)";"";" Secretaría: de 9 a 14 horas y de 16:30 a 19 horas ";"  Sala de exposiciones  Salón de actos / auditorio  ";" Metro: Aluche (línea 5)  Bus: 17, 31, 117, 121, 131, 138, 139, 155    Renfe: Aluce ";"";"1";"http://www.madrid.es/vgn-ext-templating/v/index.jsp?vgnextchannel=9e4c43db40317010VgnVCM100000dc0ca8c0RCRD&vgnextoid=6089ba61e681c010VgnVCM1000000b205a0aRCRD";"GENERAL FANJUL";"AVENIDA";"V";"2A";"";"";"";"";"MADRID";"MADRID";"28044";"LAS AGUILAS";"LATINA";"435243";"4470971";"40.38493634769686";"-3.764230286224537";"915 120 890 / 915 120 891";"";"ruizdm@madrid.es";"/contenido/entidadesYorganismos/CentrosCulturales"; 
1956;"Casa de América";" Antiguo Palacio de Linares, diseñado por Carlos Colubí en 1872.  De estilo rococó, destaca la escalera de mármol de Manuel Aníbal Álvarez y toda la decoración interior. ";"  Visitas guiadas    Sábados y domingos, a las 11, 12 y 13 horas. Durante el mes de agosto no hay visitas.   Venta de entradas anticipadas en el Punto de información de Casa de América, de lunes a viernes, de 9 a 15 y de 16 a 20 horas.    Sala de Cine Casa de América    Programación regular de miércoles a sábado a las  20 horas.  Proyecciones especiales algunos lunes y martes (consultar la programación)  Horario sujeto a modificaciones. Consultar la Agenda para verificarlo.  ";"  Celebración de actividades culturales: conciertos, conferencias, mesas redondas, actividades infantiles, exposiciones  Sala de exposiciones  Anfiteatro  Centro de información y documentación  Cine  Restauración   Restaurante Le Cabrera Casa de América, abierto todos los días de 13:30 a 15:30 y de 20:30 a 00 horas. Dispone de reservado.  Coctelería Le Cabrerita ,  abierta de lunes a domingo de 13:30 a 2 horas. Acceso por Paseo de Recoletos, 2.  Cafetería Le Cabrera Casa de América, abierta de lunes a domingo de 9 a 12 horas. Acceso por Marqués del Duero.  Terraza de verano.     La programación puede ser consultada en  http://www.casamerica.es/  ";" Metro: Banco de España (línea 2)  Bus: 1, 2, 5, 9, 10, 14, 15, 20, 27, 34, 37, 45, 51, 52, 53, 74, 146, 150, 202  Cercanías Renfe: Recoletos ";"   Punto de información (Plaza de Cibeles, 2)  Lunes a viernes, de 9 a 15 y de 16 a 20:30 horas   Exposiciones (Salas Frida Khalo y Diego Rivera).    Entrada por Marqués del Duero, 2.   Lunes a viernes, de 11 a 19:30 horas. Sábados: de 11 a 15 horas.  Domingos cerrado.    ";"1";"http://www.madrid.es/vgn-ext-templating/v/index.jsp?vgnextchannel=9e4c43db40317010VgnVCM100000dc0ca8c0RCRD&vgnextoid=10f979262ef5d010VgnVCM1000000b205a0aRCRD";"CIBELES";"PLAZA";"V";"4";"";"";"";"";"MADRID";"MADRID";"28014";"RECOLETOS";"SALAMANCA";"441379";"4474785";"40.41975904857138";"-3.692284495888486";"915 954 800 (información) ";"";"";"/contenido/entidadesYorganismos/Consorcios"; 
7320916;"Casa de la Juventud de Arganzuela";"";"";" 3 despachos de atención al público ";" Metro: Legazpi (líneas 3, 6), Pirámides (línea 5)   Bus: 6, 8, 18, 19, 45, 47, 59, 78, 85, 86, 148, 62 ";"";"0";"http://www.madrid.es/vgn-ext-templating/v/index.jsp?vgnextchannel=9e4c43db40317010VgnVCM100000dc0ca8c0RCRD&vgnextoid=84701c2830b14410VgnVCM1000000b205a0aRCRD";"CHOPERA";"PASEO";"V";"10";"";"";"";"";"MADRID";"MADRID";"28045";"CHOPERA";"ARGANZUELA";"440824";"4471863";"40.39339679324264";"-3.698565725754662";"915 132 661                    
";"";"";"/contenido/entidadesYorganismos/CentrosCulturales"; 
4605237;"Centro Casa Asia - Madrid";"";"";" Organización de cursos relacionados con la cultura y lenguas asiáticas ";" Bus: 3, 148, L3 ";"";"0";"http://www.madrid.es/vgn-ext-templating/v/index.jsp?vgnextchannel=9e4c43db40317010VgnVCM100000dc0ca8c0RCRD&vgnextoid=1baf0c4d68263110VgnVCM2000000c205a0aRCRD";"MAYOR";"CALLE";"V";"69";"1ª";"";"";"PALACIO DE CAÑETE";"MADRID";"MADRID";"28013";"PALACIO";"CENTRO";"439768";"4474305";"40.41531064853993";"-3.7112390711768444";"913 600 194 
";"";"casaasia@casaasia.es";"/contenido/entidadesYorganismos/CentrosCulturales"; 
1916;"Centro Conde Duque";" Centro Conde Duque es un espacio cultural vinculado a la memoria y a la la difusión de Madrid. 
 Entre sus fines se encuentran: la difusión de la historia de Madrid, el intercambio de conocimientos históricos con la sociedad, la conservación de  los fondos históricos y artísticos del Ayuntamiento y la producción y exhibición de manifestaciones artísticas relacionadas con el mundo de la escena y de la música. ";"  Exposiciones (entrada gratuita)  
 
 De martes a sábado de 10 a 14 y de 17:30 a 21 horas. 
 Domingos y festivos de 10:30 a 14 horas. 
 ";" 
  Salas de Exposiciones:  espacios expositivos con más de mil quinientos metros cuadrados, caracterizada por sus muros de ladrillo y por los espacios abovedados. 
  Auditorio Conde Duque:  1300 metros cuadrados, renovados en el 2011. 
  Teatro Conde Duque : espacio escénico moderno y versátil, con una escena de 12 por 17 metros de superficie y un peine de 5,99 metros de altura. Cuenta, además, con dos grandes salas de ensayo adyacentes. 
   Salon de Actos: u na gran sala de doble altura, totalmente forrada de madera, que está preparada para la realización de conferencias, presentaciones, congresos y seminarios. Ocupa las plantas primera y segunda de la zona del edificio que se sitúa encima del vestíbulo general desde el que tiene acceso. Dotado de medios de audición y gran pantalla de proyección, dispone de una capacidad de 293 asientos.  
   Zona wifi .  
 ";" Metro: Ventura Rodríguez (línea 3), San Bernardo (línea 2 y 4) y Noviciado (línea 2). 
 Bus: 1, 2, 44, 74, 133, 202, 749, Minibús M-2 ";"  Teatro, Auditorio   
 
 Venta de entradas:   www.entradas.com   y taquilla del recinto 
 Contacto: 917 220 573 (de lunes a viernes de 10 a 14:30 horas y de 16 a 17 horas) 
 Correo electrónico:  actividades@condeduquemadrid.es  
 
  Salón de actos, Salas de ensayo y Eventos  
 
 Contacto: 917 220 573 (de lunes a viernes de 10 a 14:30 horas y de 16 a 17 horas) 
 Correo electrónico:  actividades@condeduquemadrid.es  
 
  Exposiciones: entrada gratuita  
 
 Contacto: 914 800 401 
 Correo electrónico:  cdinfoexposiciones@madrid.es  
 ";"1";"http://www.madrid.es/vgn-ext-templating/v/index.jsp?vgnextchannel=9e4c43db40317010VgnVCM100000dc0ca8c0RCRD&vgnextoid=64463d0b5e71c010VgnVCM1000000b205a0aRCRD";"CONDE DUQUE";"CALLE";"V";"11";"";"";"";"";"MADRID";"MADRID";"28015";"UNIVERSIDAD";"CENTRO";"439869";"4475716";"40.42802889001877";"-3.710182353581842";"";"";"";"/contenido/entidadesYorganismos/MonumentosEdificiosArtisticos"; 
1914;"Centro Cultural - Centro Socio Cultural Villa de Barajas";" En el CSC Villa de Barajas, C/ Botica, 10: 
 
 De lunes a viernes de 8,30 a 22 horas 
  Sábados de 9,45 a 14,15 y de 17 a 20,15 horas  
 
   
 En el CSC Villa de Barajas, C/ Botica, 7: 
 
  De lunes a viernes de 8,30 a 21,30 horas 
   Sábados de 9,45 a 14,15  horas  
 
   
  El mes de agosto los dos centros permanecen cerrados.  ";"";" 
 3 salas de exposiciones 
 Salón de actos / auditorio 
 14 aulas 
 Zona wifi 
 ";" Metro: Barajas (línea 8) 
 Bus: 101, 105, 115 ";"";"1";"http://www.madrid.es/vgn-ext-templating/v/index.jsp?vgnextchannel=9e4c43db40317010VgnVCM100000dc0ca8c0RCRD&vgnextoid=476c1e79ee71c010VgnVCM1000000b205a0aRCRD";"BOTICA";"CALLE";"V";"10";"";"";"";"";"MADRID";"MADRID";"28042";"CASCO H.BARAJAS";"BARAJAS";"451070";"4480671";"40.473402418562216";"-3.5785233191070316";"913 291 803 - 913 291 676";"";"ccvillabarajas@madrid.es";"/contenido/entidadesYorganismos/CentrosCulturales"; 
117288;"Centro Cultural Agustín Díaz (Moncloa - Aravaca)";"";" Secretaría: de lunes a viernes de 10 a 13 y de 17 a 19 horas. 
 Agosto: cerrado. ";" 
 5 aulas 
 Zona wifi 
 ";" Bus: 41, 46, 75, N20. ";"";"0";"http://www.madrid.es/vgn-ext-templating/v/index.jsp?vgnextchannel=9e4c43db40317010VgnVCM100000dc0ca8c0RCRD&vgnextoid=2d07cbf06c81c010VgnVCM1000000b205a0aRCRD";"COMANDANTE FORTEA";"PASEO";"V";"42";"";"";"";"";"MADRID";"MADRID";"28008";"CASA DE CAMPO";"MONCLOA-ARAVACA";"437982";"4475676";"40.427538776051804";"-3.732422725110936";"915 487 772 / 915 487 773 ";"";"ccadiaz@madrid.es";"/contenido/entidadesYorganismos/CentrosCulturales"; 
118067;"Centro Cultural Alfredo Kraus (Fuencarral - El Pardo)";"";" Secretaría: de lunes a jueves de 9:30  a 14 y de 16 a 18. Viernes de 9:30 a 14 horas. ";" 
 Sala de exposiciones 
 Sala de lectura y estudio 
 2 salones de actos / auditorio 
 14 aulas 
 Cafetería 
 Zona wifi 
 ";" Bus: 49 , 64 ";"";"1";"http://www.madrid.es/vgn-ext-templating/v/index.jsp?vgnextchannel=9e4c43db40317010VgnVCM100000dc0ca8c0RCRD&vgnextoid=7337cbf06c81c010VgnVCM1000000b205a0aRCRD";"PRADERA DE VAQUERIZAS";"GLORIETA";"V";"9";"";"";"";"";"MADRID";"MADRID";"28035";"MIRASIERRA";"FUENCARRAL-EL PARDO";"438957";"4482694";"40.49082275610172";"-3.7216054330053647";"913 767 085";"";"ccakraus@madrid.es";"/contenido/entidadesYorganismos/CentrosCulturales"; 
1990;"Centro Cultural Almirante Churruca (Latina)";"";" Secretaría: de lunes a viernes de 9 a 14 y de 17 a 19 horas. ";" 
 Sala de exposiciones 
 Sala de lectura/estudio 
 Salón de actos/auditorio. Aforo para 115 personas. 
 10 Aulas 
 Zona wifi 
 Cafetería 
 Estudio de grabación 
 Sala para mayores 
 ";" Metro: Aviación Española (línea 10) 
 Bus: 17 y 34 
 Renfe: Las Águilas (C5), Fanjul (C5) ";"";"1";"http://www.madrid.es/vgn-ext-templating/v/index.jsp?vgnextchannel=9e4c43db40317010VgnVCM100000dc0ca8c0RCRD&vgnextoid=76c43d0b5e71c010VgnVCM1000000b205a0aRCRD";"FUENTE DEL TIRO";"CALLE";"V";"72";"";"";"";"";"MADRID";"MADRID";"28024";"LAS AGUILAS";"LATINA";"433895";"4470766";"40.3829835905706";"-3.7800890564106613";"915 090 581";"";"ccchurruca@madrid.es";"/contenido/entidadesYorganismos/CentrosCulturales"; 
1942;"Centro Cultural Antonio Machado (San Blas - Canillejas)";"";" Secretaría: de lunes a viernes de 10 a 13:30 horas y de 17 a 18:30 horas, todo el año, excepto agosto que permanecerá cerrado. ";" 
 5 salas de exposiciones 
 2 salones de actos / auditorio (180/400 butacas) 
 15 aulas 
 Zona wifi 
 ";" Metro: Alsacia (línea 2) 
 Bus: 4, 38, 48, 70, 106, 140 ";"";"1";"http://www.madrid.es/vgn-ext-templating/v/index.jsp?vgnextchannel=9e4c43db40317010VgnVCM100000dc0ca8c0RCRD&vgnextoid=cce43d0b5e71c010VgnVCM1000000b205a0aRCRD";"SAN ROMÁN DEL VALLE";"CALLE";"V";"8";"";"";"";"";"MADRID";"MADRID";"28037";"ARCOS";"SAN BLAS-CANILLEJAS";"447365";"4474799";"40.42027705095574";"-3.621741078700336";"913 135 294 ";"";"ccamachado@madrid.es";"/contenido/entidadesYorganismos/CentrosCulturales"; 
1919;"Centro Cultural Aravaca (Moncloa - Aravaca)";"";" Secretaría: de lunes a viernes de 10 a 13:30 horas. Lunes y martes de 17:30 a 19:30 horas ";" 
 Sala de exposiciones 
  7 aulas  
 Zona wifi 
 ";" Bus: 160, 161 ";"";"1";"http://www.madrid.es/vgn-ext-templating/v/index.jsp?vgnextchannel=9e4c43db40317010VgnVCM100000dc0ca8c0RCRD&vgnextoid=13153d0b5e71c010VgnVCM1000000b205a0aRCRD";"DE LA ZARZA";"CALLE";"V";"20";"";"";"";"";"MADRID";"MADRID";"28023";"ARAVACA";"MONCLOA-ARAVACA";"433479";"4479145";"40.45843103553325";"-3.785855667139094";"917 400 882 / 883";"";"ccaravaca@madrid.es";"/contenido/entidadesYorganismos/CentrosCulturales"; 
52511;"Centro Cultural Auditorio Parque El Paraíso (San Blas - Canillejas)";"";"";"";" Metro: Simancas (línea 7). 
 Bus: 4, 38, 48, 70, 109. ";"";"0";"http://www.madrid.es/vgn-ext-templating/v/index.jsp?vgnextchannel=9e4c43db40317010VgnVCM100000dc0ca8c0RCRD&vgnextoid=a395946be351c010VgnVCM2000000c205a0aRCRD";"ARCENTALES";"AVENIDA";"V";"4";"";"";"";"";"MADRID";"MADRID";"28037";"HELLIN";"SAN BLAS-CANILLEJAS";"447335";"4475875";"40.42996840999023";"-3.622184001035289";"915 888 065 ";"";"cultusanblas@madrid.es";"/contenido/entidadesYorganismos/AuditoriosSalasConcierto"; 
64851;"Centro Cultural Buenavista (Salamanca)";"";" Secretaría: de 9 a 13 horas y de 16 a 18 horas de lunes a jueves. Viernes de 9 a 13 horas. ";" 
 1 sala de exposiciones 
 2 salón de actos / auditorio 
 8 aulas (incluyendo dos gimnasios) 
 Zona Wifi 
 ";" Metro: Diego de León (líneas 4 , 5 , 6) 
 Bus: 1, 12, 48, 74 ";"";"1";"http://www.madrid.es/vgn-ext-templating/v/index.jsp?vgnextchannel=9e4c43db40317010VgnVCM100000dc0ca8c0RCRD&vgnextoid=068e598d1351c010VgnVCM1000000b205a0aRCRD";"TOREROS";"AVENIDA";"V";"5";"";"";"";"";"MADRID";"MADRID";"28028";"GUINDALERA";"SALAMANCA";"443202";"4476130";"40.43200210571468";"-3.6709293330780204";"917 240 800 / 917 240 802";"";"ccbuenavista@madrid.es";"/contenido/entidadesYorganismos/CentrosCulturales"; 
1943;"Centro Cultural Buero Vallejo (San Blas - Canillejas)";"";" Secretaría: de lunes a viernes de 10 a 13:30 y de 16:30 a 18 horas. Mes de agosto cerrado. ";" 
 Sala de exposiciones 
 Salón de actos / auditorio (264) 
 9 aulas 
 Zona wifi 
 ";" Metro: Torres Arias y Canillejas (línea 5) 
 Bus: 77, 101, 140  ";"";"1";"http://www.madrid.es/vgn-ext-templating/v/index.jsp?vgnextchannel=9e4c43db40317010VgnVCM100000dc0ca8c0RCRD&vgnextoid=98953d0b5e71c010VgnVCM1000000b205a0aRCRD";"BOLTA&Ntilde;A";"CALLE";"V";"27";"";"";"";"";"MADRID";"MADRID";"28022";"CANILLEJAS";"SAN BLAS-CANILLEJAS";"448133";"4477512";"40.44477474902185";"-3.6129105844633775";"917 411 182 / 917 411 013";"";"ccbvallejo@madrid.es";"/contenido/entidadesYorganismos/CentrosCulturales"; 
118317;"Centro Cultural Carril del Conde (Hortaleza)";"";" Secretaría (atención al público): Lunes a viernes de 9 a 14 horas y de 17 a 19 horas. ";"";" Metro: Arturo Soria (línea 4) 
 Bus: 9, 72, 73 ";" 
 Sala de exposiciones 
 Sala de lectura y estudio 
 Salón de actos / auditorio 
 9 aulas 
 Zona wifi 
 ";"1";"http://www.madrid.es/vgn-ext-templating/v/index.jsp?vgnextchannel=9e4c43db40317010VgnVCM100000dc0ca8c0RCRD&vgnextoid=66a7cbf06c81c010VgnVCM1000000b205a0aRCRD";"CARRIL DEL CONDE";"CALLE";"V";"57";"";"";"";"";"MADRID";"MADRID";"28043";"CANILLAS";"HORTALEZA";"444625";"4479327";"40.46088953531134";"-3.6544210187969433";"917 161 240 / 917 161 242                          
";"";"cccarrilconde@madrid.es";"/contenido/entidadesYorganismos/CentrosCulturales"; 
1945;"Centro Cultural Casa de Vacas (Retiro)";"";" De lunes a domingo de 10 a 22 horas. ";" 
 Sala de exposiciones 
 Salón de actos / auditorio 
 Terraza exterior 
 ";" Metro: Retiro (línea 2) 
 Bus: 2, 20, 28, 202 ";"";"1";"http://www.madrid.es/vgn-ext-templating/v/index.jsp?vgnextchannel=9e4c43db40317010VgnVCM100000dc0ca8c0RCRD&vgnextoid=35e53d0b5e71c010VgnVCM1000000b205a0aRCRD";"COLOMBIA";"PASEO";"V";"1";"";"";"";"";"MADRID";"MADRID";"28009";"LOS JERONIMOS";"RETIRO";"442077";"4474703";"40.41906024374356";"-3.6840615387926956";"914 095 819 / 915 886 388 
";"";"cccasadevacas@madrid.es";"/contenido/entidadesYorganismos/SalasExposiciones"; 
1925;"Centro Cultural Casa del Reloj (Arganzuela)";"";" Secretaría: de lunes a viernes de 10 a 13 y de 17 a 19 horas (talleres). 
 AGOSTO CERRADO. Julio abierto en horario de mañana únicamente. ";" 
 2 Salas de exposiciones 
 Salón de actos / auditorio 
 14 aulas 
 Cafetería 
 ";" Metro: Legazpi (líneas 3, 6) 
 Bus: 6, 18, 62, 78, 148 ";"";"0";"http://www.madrid.es/vgn-ext-templating/v/index.jsp?vgnextchannel=9e4c43db40317010VgnVCM100000dc0ca8c0RCRD&vgnextoid=8b063d0b5e71c010VgnVCM1000000b205a0aRCRD";"CHOPERA";"PASEO";"V";"6";"";"";"";"";"MADRID";"MADRID";"28045";"CHOPERA";"ARGANZUELA";"440695";"4471989";"40.394522745106734";"-3.7000855961559855";"915 886 207 /915 886 290";"";"crelojarganzuela@madrid.es";"/contenido/entidadesYorganismos/CentrosCulturales"; 
4551096;"Centro Cultural Ciudad Pegaso (San Blas - Canillejas)";"";" Secretaría: de lunes a viernes de 10 a 12 horas y de 16:30 a 19 horas. 
 Excepto: 
 
 Junio y septiembre: de 10:30 a 13:30 horas y de 16:30 a 19 horas 
 Julio: de 10 a 12 horas 
 Del 1 al 15 de agosto: cerrado 
 ";" 
 2 Salas de exposiciones (1.&ordf; y 2.&ordf; planta) 
 Sala de lectura y estudio 
 Salón de actos / auditorio (125) 
 5 aulas 
 Zona wifi 
 ";" Bus :  77 ";"";"0";"http://www.madrid.es/vgn-ext-templating/v/index.jsp?vgnextchannel=9e4c43db40317010VgnVCM100000dc0ca8c0RCRD&vgnextoid=07f63190712b1110VgnVCM1000000b205a0aRCRD";"SÉPTIMA";"AVENIDA";"V";"11";"";"";"";"";"MADRID";"MADRID";"28022";"REJAS";"SAN BLAS-CANILLEJAS";"449391";"4477910";"40.448428925762634";"-3.5980969888187393";"913 209 770 - 917 413 092";"";"cccpegaso@madrid.es";"/contenido/entidadesYorganismos/CentrosCulturales"; 
80143;"Centro Cultural Dotacional Integrado Arganzuela";"";" Secretaría: de lunes a sábado de 9 a 21 horas. 
 AGOSTO CERRADO. ";"  Equipamientos  
 
 Sala de exposiciones 
 Sala de lectura y estudio 
 Salón de actos / auditorio 
 2 salas de ensayo 
 8 aulas 
 Cafetería 
 Zona wifi 
 
  Servicios  
 
 Actividades de ocio y tiempo libre 
 Convivencia familiar y social  
 Atención psicosocial 
 ";" Metro: Palos de la Frontera (línea 3) 
 Bus: 6, 8, 19, 45, 47, 55, 59, 85, 86, 102, 247 
 Renfe: Delicias ";"";"1";"http://www.madrid.es/vgn-ext-templating/v/index.jsp?vgnextchannel=9e4c43db40317010VgnVCM100000dc0ca8c0RCRD&vgnextoid=f9ea79262ef5d010VgnVCM1000000b205a0aRCRD";"CANARIAS";"CALLE";"V";"17";"";"";"";"";"MADRID";"MADRID";"28045";"PALOS DE MOGUER";"ARGANZUELA";"441089";"4472825";"40.40207279862862";"-3.6955325387824014";"915 063 610";"";"";"/contenido/entidadesYorganismos/CentrosCulturales"; 
5498725;"Centro Cultural Eduardo Úrculo (Tetuán)";"";" Secretaría: Mañanas: de lunes a viernes de 9:30 a 13 horas y Tardes: de lunes a jueves 17 a 18:30 horas. 
  Julio:  Abre hasta las 18 horas 
  Agosto:  Abierto solo para biblioteca de 9 a 20:30 horas ";" 
 2 salas de exposiciones 
 1 Salón de actos / auditorio (aforo: 420 personas) 
 11 aulas 
 Zona wifi todo el edificio 
 ";" Metro: Ventilla (línea 9) 
 Bus: 42 ";" En la misma sede está ubicada la Sala de Estudio Eduardo Úrculo. ";"1";"http://www.madrid.es/vgn-ext-templating/v/index.jsp?vgnextchannel=9e4c43db40317010VgnVCM100000dc0ca8c0RCRD&vgnextoid=f8f9338588355210VgnVCM1000000b205a0aRCRD";"DONOSO";"PLAZA";"V";"5";"";"";"";"";"MADRID";"MADRID";"28029";"ALMENARA";"TETUAN";"440967";"4480259";"40.46903299144094";"-3.6976620067964996";"917 337 249";"";"cceurculo@madrid.es";"/contenido/entidadesYorganismos/CentrosCulturales"; 
1939;"Centro Cultural El Pozo (Puente de Vallecas)";"";" Secretaría: de lunes a viernes de 9 a 14 y de 17 a 19 horas. ";" 
 2 salas de exposiciones 
 2 salas de lectura y estudio 
 Salón de actos / auditorio (aforo 363 personas) 
 3 salas de ensayo 
 10 aulas 
 Cafetería 
 Zona wifi 
 ";" Renfe: El Pozo 
 Bus: 24, 102, 103, 310 ";"";"1";"http://www.madrid.es/vgn-ext-templating/v/index.jsp?vgnextchannel=9e4c43db40317010VgnVCM100000dc0ca8c0RCRD&vgnextoid=add63d0b5e71c010VgnVCM1000000b205a0aRCRD";"DE LAS GLORIETAS";"AVENIDA";"V";"19";"";"";"";"";"MADRID";"MADRID";"28053";"ENTREVIAS";"PUENTE DE VALLECAS";"444059";"4469640";"40.3735856436473";"-3.6602546064905397";"917 866 372 / 917 866 644";"";"ccptioraimundo@madrid.es";"/contenido/entidadesYorganismos/CentrosCulturales"; 
1931;"Centro Cultural Federico Chueca (Hortaleza)";"";" Secretaría (atención al público): Lunes a viernes de 9 a 14 y de 17 a 19 horas 
  JULIO Y AGOSTO CERRADO  ";" 
 Salón de actos / auditorio 
 3 aulas 
 ";" Bus: 72, 73, 87 ";"";"1";"http://www.madrid.es/vgn-ext-templating/v/index.jsp?vgnextchannel=9e4c43db40317010VgnVCM100000dc0ca8c0RCRD&vgnextoid=90573d0b5e71c010VgnVCM1000000b205a0aRCRD";"BENITA AVILA";"CALLE";"V";"17";"";"";"";"";"MADRID";"MADRID";"28043";"CANILLAS";"HORTALEZA";"444956";"4479779";"40.46498334634005";"-3.650568266584691";"913 000 389";"";"ccfchueca@madrid.es";"/contenido/entidadesYorganismos/CentrosCulturales"; 
4703628;"Centro Cultural Fernando Lázaro Carreter (Carabanchel)";"";" Secretaría: de lunes a viernes de 9:30 a 14 horas y de 16:30 a 19:30 horas. 
  AGOSTO: CERRADO  ";" 
 Sala de exposiciones 
 Sala de lectura y estudio 
 Salón de actos / auditorio 
 7 aulas 
 3 gimnasios 
 Cafetería 
 ";" Bus: 55, 60, 116, E1 ";"";"1";"http://www.madrid.es/vgn-ext-templating/v/index.jsp?vgnextchannel=9e4c43db40317010VgnVCM100000dc0ca8c0RCRD&vgnextoid=340ed2d6fe9a6110VgnVCM1000000b205a0aRCRD";"VERDAD";"CALLE";"V";"29";"";"";"";"";"MADRID";"MADRID";"28019";"OPAÑEL";"CARABANCHEL";"439245";"4471681";"40.39164343238081";"-3.717140510927299";"914 690 895               
";"";"cclazarocarreter@act-educo.com";"/contenido/entidadesYorganismos/CentrosCulturales"; 
1954;"Centro Cultural Fernando de los Ríos (Latina)";"";" Secretaría: de lunes a viernes de 9 a 14 y de 16 a 18 horas. ";" 
 Sala de exposiciones 
 2 salas de lectura/estudio 
 Salón de actos / auditorio. Aforo 194 personas. 
 11 aulas 
 Cafetería 
 Zona wifi 
 ";" Metro: Laguna (línea 6) 
 Bus: 25, 31, 138 
 Renfe: Laguna (C5), Aluche (C5) ";"  En la misma sede:  
 
 Biblioteca Pública Municipal de Aluche 
 Sala de Estudio Fernando de los Ríos 
 ";"1";"http://www.madrid.es/vgn-ext-templating/v/index.jsp?vgnextchannel=9e4c43db40317010VgnVCM100000dc0ca8c0RCRD&vgnextoid=3d973d0b5e71c010VgnVCM1000000b205a0aRCRD";"CAMARENA";"CALLE";"V";"10";"";"";"";"";"MADRID";"MADRID";"28047";"ALUCHE";"LATINA";"435929";"4472140";"40.39552931214334";"-3.7562667464373223";"917 198 994";"";"ccfrios@madrid.es";"/contenido/entidadesYorganismos/CentrosCulturales"; 
1921;"Centro Cultural Galileo (Chamberí)";"";"  Centro  
 
 De lunes  a viernes de 8:30 a 21:30 horas 
 Sábados de 10 a 20:30 horas. 
 Domingo y festivos: cerrado  
 
  Secretaría (atención al público)  
 
 De lunes a viernes 9 a 14 horas 
 Lunes y jueves de 16 a 17:30 horas 
 
  Sala exposiciones  
 
 De lunes a sábado de 10 a 14 y de 15 a 20 horas. 
 ";"  Espacios  
 
 Teatro Galileo 
 Auditorio 
 
  Servicios  
 
 2 Salas de exposiciones 
 1 Salas de lectura y estudio 
 1 Salón de actos / Auditorio 
 Aulas 
 Cafetería 
 Zona wifi 
 ";" Metro: Quevedo (línea 2) 
 Bus: 2, 16, 21 y 61 ";"  Blog  del Centro Cultural Galileo:   https://centroculturalgalileo.blogspot.com.es/   ";"0";"http://www.madrid.es/vgn-ext-templating/v/index.jsp?vgnextchannel=9e4c43db40317010VgnVCM100000dc0ca8c0RCRD&vgnextoid=30181e79ee71c010VgnVCM1000000b205a0aRCRD";"GALILEO";"CALLE";"V";"39";"";"";"";"";"MADRID";"MADRID";"28015";"ARAPILES";"CHAMBERI";"439851";"4476347";"40.43371190964793";"-3.7104543597957758";"915 913 901";"";"ccgalileo@madrid.es";"/contenido/entidadesYorganismos/CentrosCulturales"; 
70243;"Centro Cultural Gloria Fuertes (Barajas)";"";" Secretaría: de lunes a viernes de 10 a 14 y de 16 a 19 horas. ";" 
 Sala de exposiciones 
 Aulas 
 Cafetería 
 Zona wifi 
 Salón de actos 
 Sala de lectura y estudio 
 Gimnasio 
 ";" Bus: 105, 112, 115, 151. ";"";"0";"http://www.madrid.es/vgn-ext-templating/v/index.jsp?vgnextchannel=9e4c43db40317010VgnVCM100000dc0ca8c0RCRD&vgnextoid=2e5068540e41c010VgnVCM2000000c205a0aRCRD";"LOGROÑO";"AVENIDA";"V";"179";"";"";"";"";"MADRID";"MADRID";"28042";"CORRALEJOS";"BARAJAS";"449775";"4479261";"40.460622835379624";"-3.5936877657335935";"913 120 243";"";"";"/contenido/entidadesYorganismos/CentrosCulturales"; 
1930;"Centro Cultural Hortaleza";"";" Secretaría (atención al público): Lunes a viernes: de 9 a 14 horas y de 17 a 19 horas 
 Veranos: Lunes a viernes de 9 a 14 horas ";" 
 Sala de exposiciones 
 Sala de lectura y estudio 
 Salón de actos / auditorio 
 4 salas de ensayo 
 5 aulas 
 Zona wifi 
 ";" Metro: Parque de Santa María (línea 4) 
 Bus: 72, 87, 107 ";"";"1";"http://www.madrid.es/vgn-ext-templating/v/index.jsp?vgnextchannel=9e4c43db40317010VgnVCM100000dc0ca8c0RCRD&vgnextoid=86381e79ee71c010VgnVCM1000000b205a0aRCRD";"SANTA VIRGILIA";"CALLE";"V";"15";"";"";"";"";"MADRID";"MADRID";"28033";"PINAR DEL REY";"HORTALEZA";"445689";"4481092";"40.476859845869534";"-3.6420353342333227";"913 821 493";"";"cchortaleza@madrid.es";"/contenido/entidadesYorganismos/CentrosCulturales"; 
1929;"Centro Cultural Huerta de la Salud (Hortaleza)";"";" Secretaría (atención al público): Lunes a viernes de 9 a 14 y de 17 a 19 horas. 
  JULIO Y AGOSTO CERRADO  ";" 
 Salón de actos / Auditorio 
 3 aulas 
 Zona wifi 
 ";" Metro: San Lorenzo (línea 4) 
 Bus: 9, 72, 87, 107 ";"";"1";"http://www.madrid.es/vgn-ext-templating/v/index.jsp?vgnextchannel=9e4c43db40317010VgnVCM100000dc0ca8c0RCRD&vgnextoid=dc581e79ee71c010VgnVCM1000000b205a0aRCRD";"MAR DE ARAL";"CALLE";"V";"13";"";"";"";"";"MADRID";"MADRID";"28033";"PINAR DEL REY";"HORTALEZA";"445599";"4480837";"40.4745567778344";"-3.6430751341515526";"913 825 104";"";"cchuertasalud@madrid.es";"/contenido/entidadesYorganismos/CentrosCulturales"; 
6017747;"Centro Cultural José Luis López Vázquez (San Blas - Canillejas)";"";" Secretaría: de lunes a viernes de 9 a 14 horas y 15 a 18 horas.  
 Excepto: 
 
 julio y septiembre de  9 a 17 horas 
 agosto cerrado 
 ";" 
 Sala de exposiciones 
 Sala de lectura y estudio (aforo: 152) 
 Salón de actos / auditorio (aforo: 194) 
 13 aulas 
 Zona wifi 
 ";" Bus :  77 ";"";"0";"http://www.madrid.es/vgn-ext-templating/v/index.jsp?vgnextchannel=9e4c43db40317010VgnVCM100000dc0ca8c0RCRD&vgnextoid=b790e37de110f210VgnVCM1000000b205a0aRCRD";"FEBRERO";"CALLE";"V";"4";"";"";"";"";"MADRID";"MADRID";"28022";"REJAS";"SAN BLAS-CANILLEJAS";"451540";"4477716";"40.446818592300296";"-3.572741163820915";"913 293 900 - 913 295 211 ";"";"ccjllopezvazquez@madrid.es";"/contenido/entidadesYorganismos/CentrosCulturales"; 
142944;"Centro Cultural José Luis Sampedro (Latina) (antiguo Centro Cultural Lucero)";"";" Secretaría: 
 
 De lunes a jueves de 9 a 15 horas y de 16 a 20 horas. 
 Viernes de 9 a 15 horas y de 16 a 18:30 horas. 
 
 Horario de la sala de estudio:  
 
 De lunes a viernes de 9 a 21:30 horas. 
 Sábados de 9 a 13:30 horas. 
 ";" 
 4 salas de ensayos 
 Sala de exposiciones 
 Sala de lectura y estudio 
 Salón de actos / auditorio 
 6 aulas 
 Zona wifi 
 Cafetería 
 2 gimnasios 
 ";" Metro: Laguna (línea 6) 
 Bus: 55, 119, 138 
 Renfe: Laguna ";" En la misma sede está ubicada la Sala de Estudio Lucero con 54 puestos de lectura. 
 Instalación accesible. 
   ";"1";"http://www.madrid.es/vgn-ext-templating/v/index.jsp?vgnextchannel=9e4c43db40317010VgnVCM100000dc0ca8c0RCRD&vgnextoid=bd3fba61e681c010VgnVCM1000000b205a0aRCRD";"CASTROSERNA";"CALLE";"V";"4";"";"";"";"";"MADRID";"MADRID";"28047";"LUCERO";"LATINA";"436542";"4472809";"40.40159394334669";"-3.749110841406562";"915 267 820 / 821";"";"cclucero@madrid.es";"/contenido/entidadesYorganismos/CentrosCulturales"; 
1913;"Centro Cultural Juan Gris (Moncloa - Aravaca)";"";" 
 De lunes a viernes de 10 a 13:30 horas 
 De lunes a jueves de 16 a 18 horas 
 Agosto: cerrado 
 ";" 
 3 aulas. 
 Zona wifi. 
 ";" Metro: Francos Rodríguez (línea 7) 
 Bus: 44, 64, 126, 127, 128, 132, N21 ";"";"0";"http://www.madrid.es/vgn-ext-templating/v/index.jsp?vgnextchannel=9e4c43db40317010VgnVCM100000dc0ca8c0RCRD&vgnextoid=79a81e79ee71c010VgnVCM1000000b205a0aRCRD";"FRANCOS RODRíGUEZ";"CALLE";"V";"100";"";"";"";"";"MADRID";"MADRID";"28039";"VALDEZARZA";"MONCLOA-ARAVACA";"439719";"4479028";"40.457862962907384";"-3.71225373746578";"914 507 865 ";"";"ccjuangris@madrid.es";"/contenido/entidadesYorganismos/CentrosCulturales"; 
1911;"Centro Cultural Julio Cortázar (Moncloa - Aravaca)";"";" Secretaría: de lunes a jueves (atención al público) de 10 a 13:30 y de 17 a 19 horas. Viernes de 10 a 13:30 horas. ";" 
 Sala de exposiciones 
 Sala de lectura y estudio 
 Salón de actos / auditorio (aforo: 144) 
 6 aulas 
 Zona wifi 
 ";" Metro: Valdezarza y Antonio Machado (línea 7) 
 Bus: 64, 126, 127, 132, 137, N21 
   ";"";"1";"http://www.madrid.es/vgn-ext-templating/v/index.jsp?vgnextchannel=9e4c43db40317010VgnVCM100000dc0ca8c0RCRD&vgnextoid=cfc81e79ee71c010VgnVCM1000000b205a0aRCRD";"ANTONIO MACHADO";"CALLE";"V";"20";"";"";"";"";"MADRID";"MADRID";"28035";"VALDEZARZA";"MONCLOA-ARAVACA";"439107";"4480023";"40.46678159096302";"-3.7195669111891703";"913 734 375";"";"ccjuliocortazar@madrid.es";"/contenido/entidadesYorganismos/CentrosCulturales"; 
1965;"Centro Cultural Juvenil Usera";"";" De secretaría para atención al público: 
 
 Invierno: de lunes a viernes de 10 a 14 y de 17 a 19 horas. 
 Verano: de lunes a viernes de 10 a 14 horas. 
 ";" 
 1 sala de lectura y estudio, con aforo para 20 personas 
 3 aulas 
 Zona wifi 
 ";" Metro: Usera (línea 6) 
 Bus: 23, 47, 55, 60, 247, N15, N17 ";"";"1";"http://www.madrid.es/vgn-ext-templating/v/index.jsp?vgnextchannel=9e4c43db40317010VgnVCM100000dc0ca8c0RCRD&vgnextoid=876e1e79ee71c010VgnVCM1000000b205a0aRCRD";"CUESTA";"CALLE";"V";"4";"";"";"";"";"MADRID";"MADRID";"28026";"MOSCARDO";"USERA";"440065";"4471477";"40.389856130874605";"-3.7074718790538297";"913 920 541";"";"cjusera@madrid.es";"/contenido/entidadesYorganismos/CentrosCulturales"; 
1917;"Centro Cultural La Vaguada (Fuencarral - El Pardo)";"";" Secretaría: de lunes a jueves de 9 a 14 y de 16 a 19 horas.  Viernes de 9 a 14 ";"  Sala de exposiciones  Salón de actos / auditorio  7 aulas  Zona wifi  ";" Metro: Barrio del Pilar (línea 9).  Bus: 49 , 83 , 128 , 132 , 137 ";"";"1";"http://www.madrid.es/vgn-ext-templating/v/index.jsp?vgnextchannel=9e4c43db40317010VgnVCM100000dc0ca8c0RCRD&vgnextoid=09691e79ee71c010VgnVCM1000000b205a0aRCRD";"MONFORTE DE LEMOS";"AVENIDA";"V";"38";"";"";"";"";"MADRID";"MADRID";"28029";"EL PILAR";"FUENCARRAL-EL PARDO";"440003";"4481374";"40.47900813206291";"-3.709138377702435";"915 886 883";"";"cclavaguada@madrid.es";"/contenido/entidadesYorganismos/CentrosCulturales"; 
1938;"Centro Cultural Lope de Vega (Puente de Vallecas)";"";" Secretaría: de lunes a viernes no festivos de 9:15 a 13:30 horas y de 17:15 a 18:30 horas. ";" 
 Sala de exposiciones 
 Sala de lectura y estudio 
 Salón de actos / auditorio 
 2 salas de ensayo 
 ";" Renfe: Asamblea de Madrid-Entrevías 
 Bus: 24, 102, 103, 111, 144 ";"";"1";"http://www.madrid.es/vgn-ext-templating/v/index.jsp?vgnextchannel=9e4c43db40317010VgnVCM100000dc0ca8c0RCRD&vgnextoid=4a273d0b5e71c010VgnVCM1000000b205a0aRCRD";"CONCEJO DE TEVERGA";"CALLE";"V";"1";"";"";"";"";"MADRID";"MADRID";"28053";"ENTREVIAS";"PUENTE DE VALLECAS";"443084";"4471058";"40.386293684801885";"-3.6718658006661906";"917 570 580 / 917 570 582                 
";"";"cclopedevega@madrid.es";"/contenido/entidadesYorganismos/CentrosCulturales"; 
1973;"Centro Cultural Los Rosales (Villaverde)";"";" Secretaría: de lunes a jueves de 9:30 a 13:30 y de 17 a 19 y viernes de 9:30 a 13:30 horas. 
 Durante el mes de julio el horario será de 9 a 14 horas. ";" 
 Sala de exposiciones 
 Sala de lectura y estudio 
 Salón de actos / auditorio 
 9 aulas 
 Cafetería 
 Zona wifi 
 ";" Bus: 85 ";"";"1";"http://www.madrid.es/vgn-ext-templating/v/index.jsp?vgnextchannel=9e4c43db40317010VgnVCM100000dc0ca8c0RCRD&vgnextoid=a5b91e79ee71c010VgnVCM1000000b205a0aRCRD";"LOS ROSALES";"AVENIDA";"V";"133";"";"";"";"";"MADRID";"MADRID";"28021";"BUTARQUE";"VILLAVERDE";"442592";"4467116";"40.35074797433515";"-3.6773064421969233";"917 109 273";"";"cclosrosales@madrid.es";"/contenido/entidadesYorganismos/CentrosCulturales"; 
4606802;"Centro Cultural Luis Peidró (Retiro)";"";" Secretaría: de lunes a viernes de 9 a 14 horas. ";" 
 Sala de lectura y estudio 
 Salón de actos / auditorio 80 personas 
 6 aulas 
 zona wifi 
 ";" Metro: Puente de Vallecas (línea 1) , Mendez Álvaro (línea 6) 
 Bus: 113, 148 ";" En la misma sede está ubicada la Sala de Estudio Luis Peidró. ";"0";"http://www.madrid.es/vgn-ext-templating/v/index.jsp?vgnextchannel=9e4c43db40317010VgnVCM100000dc0ca8c0RCRD&vgnextoid=a6c875993dc63110VgnVCM1000000b205a0aRCRD";"LUIS PEIDRO";"CALLE";"V";"2";"";"";"";"";"MADRID";"MADRID";"28007";"ADELFAS";"RETIRO";"442921";"4472249";"40.397020792322316";"-3.673881351837232";"915 016 942 / 915 021 015       
";"";"ccluispeidro@madrid.es";"/contenido/entidadesYorganismos/CentrosCulturales"; 
6469004;"Centro Cultural Mercado de Ibiza (Retiro)";"";" Secretaría: de lunes a viernes de 9 a 14 horas. ";" 
 2 salas de lectura y estudio 
 6 aulas 
 Zona Wifi 
 ";" Metro: Ibiza (línea 9) 
 Bus: 15, 26, 61, 63, 202, 215 ";"";"1";"http://www.madrid.es/vgn-ext-templating/v/index.jsp?vgnextchannel=9e4c43db40317010VgnVCM100000dc0ca8c0RCRD&vgnextoid=dbeab973f50e7310VgnVCM1000000b205a0aRCRD";"IBIZA";"CALLE";"V";"8";"1ª";"";"";"";"MADRID";"MADRID";"28009";"IBIZA";"RETIRO";"442642";"4474600";"40.41817157699025";"-3.677392762224429";"915 572 601  / 914 009 788 / 915 571 885          
";"";"ccibiza@madrid.es";"/contenido/entidadesYorganismos/CentrosCulturales"; 
1933;"Centro Cultural Meseta de Orcasitas (Usera)";"";" Secretaría para atención al público: 
 Invierno: 
 
 De lunes a jueves de 9:30 a 13:30 y de 17 a 18:30 horas. 
 Viernes de 9:30 a 13:30 horas. 
 
 Verano (julio y agosto): 
 
 De lunes a viernes de 9:30 a 13:30 horas. 
 
   ";" 
 1 Sala de exposiciones 
 1 Salón de actos / auditorio con aforo para 280 personas 
 2 Salas de ensayo 
 3 aulas 
 Zona wifi 
 2 gimnasios 
 Aula de baile 
 Sala de espera 
 ";" Bus: 78, 81, 116 
 Renfe: Orcasitas (C5) ";"  Otro correo electrónico :  sanchezda@madrid.es  
   ";"1";"http://www.madrid.es/vgn-ext-templating/v/index.jsp?vgnextchannel=9e4c43db40317010VgnVCM100000dc0ca8c0RCRD&vgnextoid=fbd91e79ee71c010VgnVCM1000000b205a0aRCRD";"ASOCIACION";"PLAZA";"V";"1";"";"";"";"";"MADRID";"MADRID";"28041";"ORCASITAS";"USERA";"439988";"4469239";"40.36968950845358";"-3.7081679144829076";"913 415 677 / 913 415 326";"";"ccmesetaorcasitas@madrid.es";"/contenido/entidadesYorganismos/CentrosCulturales"; 
1955;"Centro Cultural Miguel Hernández (Latina)";"";" Secretaría: de lunes a viernes de 9 a 14 y de 17 a 19 horas. ";" 
 Sala de exposiciones 
 Sala de lectura y estudio 
 Salón de actos / auditorio 
 7 aulas 
 Zona wifi 
 ";" Bus: 17, 34, 39, 117, 139 
 Renfe: Las Aguilas (C5) ";" En la misma sede esta ubicada la Sala de Estudios Miguel Hernández. ";"1";"http://www.madrid.es/vgn-ext-templating/v/index.jsp?vgnextchannel=9e4c43db40317010VgnVCM100000dc0ca8c0RCRD&vgnextoid=420a1e79ee71c010VgnVCM1000000b205a0aRCRD";"SERRADILLA";"CALLE";"V";"13";"";"";"";"";"MADRID";"MADRID";"28044";"LAS AGUILAS";"LATINA";"433732";"4470309";"40.378853797128336";"-3.7819616113032115";"917 066 300";"";"ccmiguelh@madrid.es";"/contenido/entidadesYorganismos/CentrosCulturales"; 
1972;"Centro Cultural Moncloa (Moncloa - Aravaca)";"            ";" Secretaría: de lunes a viernes de 9 a 14 horas.  
 Agosto: cerrado. ";" 
 Sala de exposiciones 
 Salón de actos / auditorio (aforo:250) 
 Zona wifi 
 ";" Metro: Moncloa (líneas 3, 6) 
 Bus: 1, 16, 44, 61, 82, 83, 132, 133, 160, 161, 162, A, G, C ";"";"1";"http://www.madrid.es/vgn-ext-templating/v/index.jsp?vgnextchannel=9e4c43db40317010VgnVCM100000dc0ca8c0RCRD&vgnextoid=982a1e79ee71c010VgnVCM1000000b205a0aRCRD";"MONCLOA";"PLAZA";"V";"1";"";"";"";"";"MADRID";"MADRID";"28008 ";"ARGUELLES";"MONCLOA-ARAVACA";"439137";"4476518";"40.435209393826675";"-3.7188765163188293";"915 886 978  / 914 800 586 /  915 886 952            
";"";"ccmoncloa@madrid.es";"/contenido/entidadesYorganismos/CentrosCulturales"; 
1932;"Centro Cultural Nicolás Salmerón (Chamartín)";"";" Secretaría: 
 
 De lunes a jueves de 9 a 13:30 y de 16 a 19 horas 
 Viernes de 9 a 13:30 horas y de 16 a 17 horas 
 ";" 
 2 Sala de exposiciones 
 1 Salón de actos / auditorio 
  Sala de ensayo  
 17 aulas 
 Cafetería 
 Zona wifi (parcial) 
 ";" Metro: Concha Espina (línea 9), Prosperidad (línea 4), Cruz del Rayo (línea 9) 
 Bus: 7, 16, 19, 29, 51, 52 ";"";"1";"http://www.madrid.es/vgn-ext-templating/v/index.jsp?vgnextchannel=9e4c43db40317010VgnVCM100000dc0ca8c0RCRD&vgnextoid=ee4a1e79ee71c010VgnVCM1000000b205a0aRCRD";"MANTUANO";"CALLE";"V";"51";"";"";"";"";"MADRID";"MADRID";"28002";"CIUDAD JARDIN";"CHAMARTIN";"442766";"4477922";"40.44810636195716";"-3.6762309620097398";"915 103 751";"";"ccnsalmeron@madrid.es";"/contenido/entidadesYorganismos/CentrosCulturales"; 
1934;"Centro Cultural Orcasur (Usera)";"";" Secretaría para atención al público: 
 Invierno: 
 
 De lunes a jueves de 9:30 a 13:30 y de 17 a 19 horas. 
 Viernes de 9:30 a 13:30 horas. 
 
 Verano: 
 
 De lunes a viernes de 10 a 13:30 horas. 
 Agosto cerrado. 
 ";" 
 1 salón de actos / auditorio 
 2 salas de ensayo 
 5 aulas 
 Zona wifi 
 3 gimnasios 
 Zona acristalada en el patio central del centro. 
 ";" Bus: 76, 78, 116 
 Renfe: Orcasitas (C5) ";"";"1";"http://www.madrid.es/vgn-ext-templating/v/index.jsp?vgnextchannel=9e4c43db40317010VgnVCM100000dc0ca8c0RCRD&vgnextoid=8b9a1e79ee71c010VgnVCM1000000b205a0aRCRD";"PUEBLO";"PLAZA";"V";"2";"";"";"";"";"MADRID";"MADRID";"28041";"ORCASUR";"USERA";"440582";"4468910";"40.366768324753416";"-3.701141063083806";"913 188 090 / 913 188 091";"";"ccorcasur@madrid.es";"/contenido/entidadesYorganismos/CentrosCulturales"; 
114978;"Centro Cultural Palacete Quinta del Berro (Salamanca)";"";"  Secretaría:  
 
 General: de lunes a jueves de 9 a 14 y de 16 a 18 horas. Viernes de 9 a 14 horas. 
 Julio: de 9 a 14 horas 
 Agosto, cerrado. 
 ";" 
 Sala de exposiciones 
 Sala de lectura y estudio 
 Salón de actos / auditorio 
 4 aulas 
 Zona wifi 
 Sala de lectura de prensa 
 ";" Bus: 15 , 28 , 71 ";"";"1";"http://www.madrid.es/vgn-ext-templating/v/index.jsp?vgnextchannel=9e4c43db40317010VgnVCM100000dc0ca8c0RCRD&vgnextoid=bcc7cbf06c81c010VgnVCM1000000b205a0aRCRD";"ENRIQUE D'ALMONTE";"CALLE";"V";"1";"";"";"";"";"MADRID";"MADRID";"28028";"FUENTE DEL BERRO";"SALAMANCA";"443869";"4475023";"40.42206601994432";"-3.662968075865235";"915 570 805 / 07 /08/ 09";"";"";"/contenido/entidadesYorganismos/CentrosCulturales"; 
1952;"Centro Cultural Príncipe de Asturias (Ciudad Lineal)";"";" Secretaría: de 9 a 13 y de 17 a 19 horas ";" 
 Sala de exposiciones 
 Salón de actos / auditorio 
 3 aulas 
 Zona wifi 
 ";" Metro: Ciudad Lineal (línea 5) 
 Bus: 4, 38, 48, 70, 77, 104, 105, 109, 113 ";"";"1";"http://www.madrid.es/vgn-ext-templating/v/index.jsp?vgnextchannel=9e4c43db40317010VgnVCM100000dc0ca8c0RCRD&vgnextoid=d1ca1e79ee71c010VgnVCM1000000b205a0aRCRD";"HERMANOS GARCIA NOBLEJAS";"CALLE";"V";"14";"";"";"";"";"MADRID";"MADRID";"28037";"PUEBLO NUEVO";"CIUDAD LINEAL";"446058";"4476602";"40.436444648624814";"-3.6373000672722675";"915 887 564                               
";"";"ccprincipeasturias@madrid.es";"/contenido/entidadesYorganismos/CentrosCulturales"; 
1920;"Centro Cultural Puerta de Toledo (Centro)";"";" Secretaría: de lunes a viernes de 9 a 14 horas y de 16 a 18 horas. ";" 
 Salón de actos / auditorio 
 5 aulas 
 Zona wifi 
 ";" Metro: Puerta de Toledo (línea 5). 
 Bus: 3, 17, 18, 23, 35, 41, 60, 148. ";"";"0";"http://www.madrid.es/vgn-ext-templating/v/index.jsp?vgnextchannel=9e4c43db40317010VgnVCM100000dc0ca8c0RCRD&vgnextoid=28ea1e79ee71c010VgnVCM1000000b205a0aRCRD";"GRAN VIA DE SAN FRANCISCO";"AVENIDA";"V";"2";"";"";"";"";"MADRID";"MADRID";"28005";"PALACIO";"CENTRO";"439702";"4473428";"40.40740551053055";"-3.7119218940274026";"913 662 728";"";"ccptoledo@madrid.es";"/contenido/entidadesYorganismos/CentrosCulturales"; 
1935;"Centro Cultural San Fermín (Usera)";"";" Secretaría para atención al público: 
 
 De lunes a jueves de 10 a 13:30 y de 17:30 a 19 horas. 
 Verano: de lunes a jueves de 10 a 13:30 horas. 
 ";" 
 6 aulas 
  Zona wifi (pasillo)  
 ";" Metro: San Fermín - Orcasur (línea 3) 
 Bus: 23, 78, 123 ";"";"1";"http://www.madrid.es/vgn-ext-templating/v/index.jsp?vgnextchannel=9e4c43db40317010VgnVCM100000dc0ca8c0RCRD&vgnextoid=1b5b1e79ee71c010VgnVCM1000000b205a0aRCRD";"ESTAFETA";"CALLE";"V";"33";"";"";"";"";"MADRID";"MADRID";"28041";"SAN FERMIN";"USERA";"441357";"4469445";"40.37164288657417";"-3.6920627827867514";"917 920 111";"";"";"/contenido/entidadesYorganismos/CentrosCulturales"; 
4703422;"Centro Cultural San Francisco La Prensa (Carabanchel)";"";" Secretaría: de lunes a viernes de 9.30 a 14 y de 16:30 a 19:30 horas. 
  AGOSTO: CERRADO  ";" 
 Sala de exposiciones 
 Sala de lectura y estudio 
 Salón de actos / auditorio 
 5 aulas  
 3 gimnasios  
 Cafetería  
 Wifi 
 ";" Metro: San Francisco (línea 11) 
 Bus: 47, 108, 118 ";"";"1";"http://www.madrid.es/vgn-ext-templating/v/index.jsp?vgnextchannel=9e4c43db40317010VgnVCM100000dc0ca8c0RCRD&vgnextoid=5787e842ec9a6110VgnVCM1000000b205a0aRCRD";"ALISEDA";"CALLE";"V";"4";"";"";"";"";"MADRID";"MADRID";"28025";"PUERTA BONITA";"CARABANCHEL";"437153";"4470063";"40.37690319217392";"-3.741639735552097";"914 284 911       
";"";"ccsanfrancisco@act-educo.com";"/contenido/entidadesYorganismos/CentrosCulturales"; 
1958;"Centro Cultural San Juan Bautista (Ciudad Lineal)";"";" Secretaría: de lunes a viernes de 9 a 14 horas y de 17 a 19 horas 
 Julio: de lunes a viernes de 9 a 14 horas 
 Agosto: cerrado ";" 
 Sala de exposiciones 
 Sala de lectura y estudio  
 Salón de actos / auditorio 
 8 aulas 
 Cafetería 
 Zona wifi 
 ";" Metro: Avenida de la Paz (línea 4) 
 Bus: 11, 53, 70, 122 ";"";"1";"http://www.madrid.es/vgn-ext-templating/v/index.jsp?vgnextchannel=9e4c43db40317010VgnVCM100000dc0ca8c0RCRD&vgnextoid=618b1e79ee71c010VgnVCM1000000b205a0aRCRD";"SAN NEMESIO";"CALLE";"V";"4";"";"";"";"";"MADRID";"MADRID";"28043";"SAN JUAN BAUTISTA";"CIUDAD LINEAL";"444312";"4478369";"40.45224737965276";"-3.6580402287911937";"914 157 705";"";"ccsanjuanbautista@madrid.es";"/contenido/entidadesYorganismos/CentrosCulturales"; 
6018014;"Centro Cultural Sanchinarro (Hortaleza)";"";" Secretaría (atención al público): de lunes a viernes de 10 a 14 y de 16 a 19 horas. ";" 
 Sala de exposiciones 
 2 salas de lectura y estudio 
 Salón de actos / auditorio 
 17 aulas 
 Zona wifi 
 ";" Bus: 172, 173, 174 ";"";"1";"http://www.madrid.es/vgn-ext-templating/v/index.jsp?vgnextchannel=9e4c43db40317010VgnVCM100000dc0ca8c0RCRD&vgnextoid=12eb70618510f210VgnVCM1000000b205a0aRCRD";"PRINCESA DE EBOLI";"CALLE";"V";"29";"";"";"";"C/V Conde de Mayalde";"MADRID";"MADRID";"28050";"VALDEFUENTES";"HORTALEZA";"444579";"4482598";"40.49035310157377";"-3.655261744717257";"915 000 603";"";"info@centroculturalsanchinarro.com";"/contenido/entidadesYorganismos/CentrosCulturales"; 
115404;"Centro Cultural Sara Montiel (Latina) (antiguo Centro Cultural Campamento)";"";" Secretaría: de lunes a viernes de 9 a 14 horas y de 16:30 a 19 horas ";" 
 Sala de exposiciones 
 Sala de lectura y estudio. 54 puestos de lectura. 
 Salón de actos / auditorio 
 8 aulas 
 Zona wifi 
 ";" Metro: Colonia Jardín (línea 10), ML2, ML3 
 Bus: 65, H ";" En la misma sede está ubicada la sala de estudio Sara Montiel. ";"1";"http://www.madrid.es/vgn-ext-templating/v/index.jsp?vgnextchannel=9e4c43db40317010VgnVCM100000dc0ca8c0RCRD&vgnextoid=c957cbf06c81c010VgnVCM1000000b205a0aRCRD";"BOADILLA DEL MONTE";"CARRETERA";"V";"40";"";"";"";"";"MADRID";"MADRID";"28024";"CAMPAMENTO";"LATINA";"434331";"4472625";"40.399764677637116";"-3.775144917950534";"915 120 890 / 915 120 891";"";"ccsaramontiel@madrid.es";"/contenido/entidadesYorganismos/CentrosCulturales"; 
1971;"Centro Cultural Teresa de Calcuta (Barajas)";"";" Secretaría: de lunes a viernes de 9 a 14 y de 16.30 a 19 horas. 
 AGOSTO CERRADO ";" 
 2 Sala de exposiciones 
 1 Sala de lectura y estudio 
 9 aulas 
 Zona wifi 
 Cafetería 
 ";" Metro: Alameda de Osuna (línea 5) 
 Bus: 101, 112, 114, 115, 151 ";"";"1";"http://www.madrid.es/vgn-ext-templating/v/index.jsp?vgnextchannel=9e4c43db40317010VgnVCM100000dc0ca8c0RCRD&vgnextoid=f50e1e79ee71c010VgnVCM1000000b205a0aRCRD";"NAVIO";"PLAZA";"V";"4";"";"";"";"";"MADRID";"MADRID";"28042";"ALAMEDA DE OSUNA";"BARAJAS";"450284";"4478668";"40.45531140556268";"-3.587638001688095";"913 295 920";"";"ccteresacalcuta@madrid.es";"/contenido/entidadesYorganismos/CentrosCulturales"; 
1994;"Centro Cultural Usera 1";"";" De secretaría para atención al público: 
 Invierno:  
 
 De lunes a jueves: de 9:30 a 13:30 y de 17 a 20 horas 
 Viernes: de 9:30 a 13:30 horas 
 
 Verano (julio y agosto): 
 
 De lunes a viernes, de 9:30 a 13:30 y de 17 a 19 horas. 
 
   ";" 
  5 aulas  
 Zona wifi 
 ";" Metro: Plaza Elíptica (línea 6) 
 Bus: 6, 60, 78, 81 ";"";"1";"http://www.madrid.es/vgn-ext-templating/v/index.jsp?vgnextchannel=9e4c43db40317010VgnVCM100000dc0ca8c0RCRD&vgnextoid=54fb1e79ee71c010VgnVCM1000000b205a0aRCRD";"RAFAELA YBARRA";"AVENIDA";"V";"49";"";"";"";"";"MADRID";"MADRID";"28026";"PRADOLONGO";"USERA";"439760";"4470507";"40.381095838993176";"-3.710973351109332";"915 887 214                        
";"";"ccusera@madrid.es";"/contenido/entidadesYorganismos/CentrosCulturales"; 
7416137;"Centro Cultural Usera 2";"";" Secretaría para atención al público en el Centro Cultural Usera 1. ";" 
 3 aulas 
 Zona wifi 
 ";" Metro: Usera (línea 6) 
 Bus: 6, 47, 60, 81, 247 ";"";"0";"http://www.madrid.es/vgn-ext-templating/v/index.jsp?vgnextchannel=9e4c43db40317010VgnVCM100000dc0ca8c0RCRD&vgnextoid=3cadb2cffdc15410VgnVCM1000000b205a0aRCRD";"FELIPE CASTRO";"CALLE";"V";"30";"";"";"";"";"MADRID";"MADRID";"28026";"PRADOLONGO";"USERA";"439923";"4470861";"40.38429664257218";"-3.7090866533057723";"915 887 214             
";"";"ccusera@madrid.es";"/contenido/entidadesYorganismos/CentrosCulturales"; 
123948;"Centro Cultural Valdebernardo (Vicálvaro)";"     ";" Secretaría: de lunes a viernes de 9 a 14 horas. ";" 
 Sala de exposiciones 
 2 salas de lectura y estudio 
 Salón de actos / Auditorio 
 4 salas de ensayo 
 14 aulas 
 Zona wifi 
 ";" Metro: Valdebernardo (línea 9) 
 Bus: 8, 71, 130 ";"";"1";"http://www.madrid.es/vgn-ext-templating/v/index.jsp?vgnextchannel=9e4c43db40317010VgnVCM100000dc0ca8c0RCRD&vgnextoid=69188899fc81c010VgnVCM1000000b205a0aRCRD";"INDALECIO PRIETO";"BULEVAR";"V";"21";"";"";"";"";"MADRID";"MADRID";"28032";"CASCO H.VICALVARO";"VICALVARO";"447388";"4472529";"40.39982891410407";"-3.621281890570377";"913 016 460 / 913 016 462";"";"ccvaldebernardo@madrid.es";"/contenido/entidadesYorganismos/CentrosCulturales"; 
1980;"Centro Cultural Zazuar (Villa de Vallecas)";"";" Secretaría: 
 
 De 9 a 19:30 horas ininterrumpidamente de lunes a viernes y de septiembre a junio 
 De 9 a 14 horas ininterrumpidamente de lunes a viernes los meses de julio y agosto 
 ";" 
 Salón de actos / auditorio 
 6 aulas 
 Zona wifi 
 ";" Bus: 58, 63, 145 ";"";"0";"http://www.madrid.es/vgn-ext-templating/v/index.jsp?vgnextchannel=9e4c43db40317010VgnVCM100000dc0ca8c0RCRD&vgnextoid=9d8c1e79ee71c010VgnVCM1000000b205a0aRCRD";"ZAZUAR";"CALLE";"V";"4";"";"";"";"";"MADRID";"MADRID";"28031";"SANTA EUGENIA";"VILLA DE VALLECAS";"448659";"4470631";"40.38281899948726";"-3.606140062044455";"913 322 529";"";"cczazuar@madrid.es";"/contenido/entidadesYorganismos/CentrosCulturales"; 
1953;"Centro Cultural el Madroño (Vicálvaro)";"     ";" Secretaría: de lunes a viernes de 9 a 14 horas. ";" 
 Sala de lectura y estudio 
 Salón de actos / Auditorio 
 Aulas 
 Zona wifi 
 ";" Metro: Vicálvaro (línea 9) 
 Bus: 4, 100, 106, 130 ";"";"0";"http://www.madrid.es/vgn-ext-templating/v/index.jsp?vgnextchannel=9e4c43db40317010VgnVCM100000dc0ca8c0RCRD&vgnextoid=57b63d0b5e71c010VgnVCM1000000b205a0aRCRD";"VILLARDONDIEGO";"CALLE";"V";"36";"";"";"";"";"MADRID";"MADRID";"28032";"CASCO H.VICALVARO";"VICALVARO";"448466";"4473127";"40.405292721436055";"-3.6086161200017157";"917 753 140          
";"";"ccelmadrono@madrid.es";"/contenido/entidadesYorganismos/CentrosCulturales"; 
1940;"Centro Cultural el Torito (Moratalaz)";"";" Secretaría:  
 
 De lunes a viernes de 9 a 13:30 y de 17 a 18:30 horas 
 Sábados y domingos cerrado 
 Agosto cerrado 
 ";" 
 Sala de exposiciones 
 Sala de lectura y estudio 
 Salón de actos / auditorio 
 3 Sala de ensayo 
 9 aulas 
 Zona wifi 
 ";" Metro: Artilleros (línea 9) 
 Bus: 20, 30, 32, 71, 100 ";"";"1";"http://www.madrid.es/vgn-ext-templating/v/index.jsp?vgnextchannel=9e4c43db40317010VgnVCM100000dc0ca8c0RCRD&vgnextoid=f3073d0b5e71c010VgnVCM1000000b205a0aRCRD";"MORATALAZ";"AVENIDA";"V";"130";"";"";"";"";"MADRID";"MADRID";"28030";"VINATEROS";"MORATALAZ";"445250";"4473240";"40.40609591857167";"-3.646536107063507";"913 287 385 / 913 287 386";"";"cceltorito@madrid.es";"/contenido/entidadesYorganismos/CentrosCulturales"; 
1951;"Centro Cultural la Elipa (Ciudad Lineal)";"";" Secretaría: de lunes a viernes de 9 a 14 y de 17 a 19 horas 
 Agosto cerrado ";" 
 Sala de exposiciones 
 Salón de actos / auditorio (250 localidades) 
 8 aulas 
 Zona wifi 
 ";" Metro: La Elipa (línea 2). 
 Bus: 15, 28, 110, 113, 210. ";"";"0";"http://www.madrid.es/vgn-ext-templating/v/index.jsp?vgnextchannel=9e4c43db40317010VgnVCM100000dc0ca8c0RCRD&vgnextoid=6c191e79ee71c010VgnVCM1000000b205a0aRCRD";"SANTA FELICIDAD";"CALLE";"V";"39";"";"";"";"";"MADRID";"MADRID";"28017";"VENTAS";"CIUDAD LINEAL";"444934";"4475281";"40.42447060804354";"-3.6504253324201104";"914 055 312";"";"ccelipa@madrid.es";"/contenido/entidadesYorganismos/CentrosCulturales"; 
4703662;"Centro Juvenil Carabanchel Alto";" Mira la programación mensual de cada uno de los centros juveniles, encontrarás talleres, teatro, actividades, cesiones de espacios para tu música o tus ensayos, exposiciones; además Wifi gratuito, oficinas de información juvenil y un montón de cosas interesantes. ";" Horario de apertura del centro :  de lunes a sábado de 9 a 21 horas.  
 Horario de información: 
 
 Lunes a viernes de 16:30 a 20:30 horas. 
 Miércoles y jueves de 12:30 a 14:30 horas. 
 
 Agosto cerrado ";" 
 Salas de ensayo 
 3 aulas 
 Sala polivalente 
 ";" Metro :  La Peseta (línea 11) 
 Bus :  35 y 47 ";"";"1";"http://www.madrid.es/vgn-ext-templating/v/index.jsp?vgnextchannel=9e4c43db40317010VgnVCM100000dc0ca8c0RCRD&vgnextoid=2565d2d6fe9a6110VgnVCM1000000b205a0aRCRD";"ALFONSO FERNANDEZ";"CALLE";"V";"23";"";"";"";"";"MADRID";"MADRID";"28044";"BUENAVISTA";"CARABANCHEL";"435970";"4468954";"40.366822704148795";"-3.755451103709316";"915 118 980                                                 
                                                                                         
";"";"actividadescarabanchel@gmail.com";"/contenido/entidadesYorganismos/OficinasInformacionJuvenil"; 
146682;"Centro Juvenil El Aleph (Villa de Vallecas)";" Mira la programación mensual de cada uno de los centros juveniles, encontrarás talleres, teatro, actividades, cesiones de espacios para tu música o tus ensayos, exposiciones; además Wifi gratuito, oficinas de información juvenil y un montón de cosas interesantes. 
  Información sobre las actividades:  
  Correo :  actividadesaleph@gmail.com  
  Teléfono : 913 312 725 ";"  Horario de apertura del centro:  de lunes a domingo de 8:30 a 21:30 horas. 
  Horario de información:  de lunes a viernes de 16 a 21 horas 
 Agosto cerrado. ";"  Recursos permanentes   
 
 Sala polivalente 
 Puntos de acceso a Internet 
 Wifi gratuito 
 ";" Bus: 58 , 63 , 145 
 Renfe: Santa Eugenia ";"";"1";"http://www.madrid.es/vgn-ext-templating/v/index.jsp?vgnextchannel=9e4c43db40317010VgnVCM100000dc0ca8c0RCRD&vgnextoid=84869475d381c010VgnVCM1000000b205a0aRCRD";"ZAZUAR";"CALLE";"V";"1";"";"";"";"C/V. Avda. Mediterráneo";"MADRID";"MADRID";"28031";"SANTA EUGENIA";"VILLA DE VALLECAS";"448718";"4470605";"40.38257934400676";"-3.6054546139177392";"913 013 457";"";"cj7aleph@madrid.es";"/contenido/entidadesYorganismos/OficinasInformacionJuvenil"; 
190703;"Centro Juvenil El Pardo";" Mira la programación mensual de cada uno de los centros juveniles, encontrarás talleres, teatro, actividades, cesiones de espacios para tu música o tus ensayos, exposiciones; además Wifi gratuito, oficinas de información juvenil y un montón de cosas interesantes. 
  Información sobre las actividades  
  Correo :  actividadeselpardo@gmail.com  
  Teléfono : 913 760 652 ";" 
  Miércoles  de 16 a 21 horas 
  Jueves  de 16 a 21 horas 
  Viernes  de 12 a 15 horas y de 16 a 21 horas 
  Sábados  de 11 a 14 horas y de 16 a 20 horas (de mayo a septiembre de 16 a 21 horas) 
 
  Horario de información : Viernes y sábado de 11 a 14 horas. De miércoles a sábado de 16 a 20 horas. ";"  Recursos permanentes   
 
 Salas polivalentes 
 Puntos de acceso a Internet 
 Wifi gratuito 
 Oficina de Información Juvenil 
 ";"  Autobús:  desde el intercambiador de Moncloa el  601  (isla 3-dársena 30) y el  602  que sale del hospital Universitario la Paz. ";"";"0";"http://www.madrid.es/vgn-ext-templating/v/index.jsp?vgnextchannel=9e4c43db40317010VgnVCM100000dc0ca8c0RCRD&vgnextoid=617ef50ad2a30110VgnVCM1000000b205a0aRCRD";"PADRE CIPRIANO";"AVENIDA";"V";"11";"";"";"";"";"MADRID";"MADRID";"28048";"EL PARDO";"FUENCARRAL-EL PARDO";"434160";"4485934";"40.51964199418355";"-3.778542672958104";"913 760 652";"";"cj3elpardo@madrid.es";"/contenido/entidadesYorganismos/OficinasInformacionJuvenil"; 
182139;"Centro Juvenil El Sitio de mi Recreo (Villa de Vallecas)";" Mira la programación mensual de cada uno de los centros juveniles, encontrarás talleres, teatro, actividades, cesiones de espacios para tu música o tus ensayos, exposiciones; además Wifi gratuito, oficinas de información juvenil y un montón de cosas interesantes. 
  Información sobre las actividades:  
  Correo :  actividadeselrecreo@gmail.com  
  Teléfono : 913 05 24 48 ";"  Horario de apertura del centro:  de lunes a domingo de 8:30 a 21:30 horas.  
  Horario de información : el lunes de 16 a 20 horas, de martes a viernes de 12 a 15 horas y de 16 a 21 horas. Los sábados de 16 a 20 horas. ";"  Recursos permanentes   
 
 Sala polivalente 
 Sala exposiciones  
 Teatro/Auditorio  
 3 locales de ensayo  
 Puntos de acceso a Internet 
 Wifi gratuito 
 Oficina de Información Juvenil 
 ";" 
  Metro:  Villa de Vallecas (línea 1)  
  Bus:  54, 58, 103, 142, 143, N9 
  Renfe:  Vallecas 
 ";"";"1";"http://www.madrid.es/vgn-ext-templating/v/index.jsp?vgnextchannel=9e4c43db40317010VgnVCM100000dc0ca8c0RCRD&vgnextoid=9bd738d60b41c010VgnVCM2000000c205a0aRCRD";"REAL DE ARGANDA";"CALLE";"V";"39";"";"";"";"";"MADRID";"MADRID";"28031";"SANTA EUGENIA";"VILLA DE VALLECAS";"447744";"4470274";"40.37953682427198";"-3.616901585603186";"913 052 448";"";"cj6srecreo@madrid.es";"/contenido/entidadesYorganismos/OficinasInformacionJuvenil"; 
5396226;"Centro Juvenil Hontalbilla (Fuencarral - El Pardo)";" Mira la programación mensual de cada uno de los centros juveniles, encontrarás talleres, teatro, actividades, cesiones de espacios para tu música o tus ensayos, exposiciones; además Wifi gratuito, oficinas de información juvenil y un montón de cosas interesantes. 
  Información sobre las actividades  
  Correo :  actividadeshontalbilla@gmail.com  
  Teléfono : 917 342 878 y 917 364 378 
   ";"   Horario de apertura del centro :   
 
 Mañanas: de lunes a sábados, de: 10 a 14 horas 
 Tardes:de lunes a sábados, de 16 a  20:30 horas 
 
 Agosto   centro juvenil cerrado. 
  Horario de información :  
 
 Mañanas: Martes y jueves de 12 a 14 horas. 
 Tardes: Lunes a viernes de 16 a 21 horas. 
 ";"  Asesoría de salud joven  
 Asesoramiento gratuito dirigido a jóvenes sobre sexualidad, abuso de sustancias, alimentación y hábitos saludables, adorno corporal o cualquier otra pregunta sobre salud. 
  Recursos permanentes   
 
 Salas polivalentes 
 Puntos de acceso a Internet 
 Wifi gratuito 
 Oficina de Información Juvenil 
 ";" Metro: Fuencarral (línea 10) 
 Bus: 66, 124 y 137, 154,  N 24 
 Renfe: Madrid-Ramón y Cajal ";"";"1";"http://www.madrid.es/vgn-ext-templating/v/index.jsp?vgnextchannel=9e4c43db40317010VgnVCM100000dc0ca8c0RCRD&vgnextoid=afc93331c9ee2210VgnVCM2000000c205a0aRCRD";"HONTALBILLA";"CALLE";"V";"10";"";"";"";"";"MADRID";"MADRID";"28034";"VALVERDE";"FUENCARRAL-EL PARDO";"441583";"4482839";"40.49231828430878";"-3.6906342081203283";"917 364 378";"";"cj4hontalbilla@madrid.es";"/contenido/entidadesYorganismos/OficinasInformacionJuvenil"; 
4923522;"Centro Juvenil Tetuán Punto Joven";" Mira la programación mensual de cada uno de los centros juveniles, encontrarás talleres, teatro, actividades, cesiones de espacios para tu música o tus ensayos, exposiciones; además Wifi gratuito, oficinas de información juvenil y un montón de cosas interesantes. 
  Información sobre las actividades  
  Correo :  tetuanpuntojoven@gmail.com  
  Teléfono : 915 347 744 ";" Lunes de 17 a 20 horas y de martes a sábado de 11 a 14 y de 16 a 20 horas. 
 Domingos y festivos: cerrado. 
 Agosto: cerrado. ";" 
 Sala Polivalente 
 Punto de acceso a Internet. 
 Wifi gratuito 
 Oficina de Información Juvenil 
 ";" Metro: Cuatro Caminos (líneas 1, 2 y 6) y Nuevos Ministerios (líneas 6, 8 y 10) 
 Bus: 5, 45, 66, 127, 128, 14 ,  C 1,  C 2 
 Cercanías: Nuevos Ministerios ";"";"0";"http://www.madrid.es/vgn-ext-templating/v/index.jsp?vgnextchannel=9e4c43db40317010VgnVCM100000dc0ca8c0RCRD&vgnextoid=2f9e41aee5a2a110VgnVCM1000000b205a0aRCRD";"DULCINEA";"CALLE";"V";"4";"";"";"";"Acceso por Raimundo Fdez. Villaverde, 35";"MADRID";"MADRID";"28020";"CUATRO CAMINOS";"TETUAN";"440760";"4477837";"40.447199849232135";"-3.6998771920981004";"915 347 744";"";"cj1tetuan@madrid.es";"/contenido/entidadesYorganismos/OficinasInformacionJuvenil"; 
112637;"Centro Santiago Apostol (Hortaleza)";"";" Secretaría: de lunes a viernes de 9 a 14 y de 16:30 a 21 horas. ";" 
 Sala de lectura y estudio. 
 Talleres y actividades para todas las edades. 
 Programa 'La Tarde más Joven' 
 ";" Metro: Manoteras (línea 4). 
 Bus: 7, 9, 129. ";"";"1";"http://www.madrid.es/vgn-ext-templating/v/index.jsp?vgnextchannel=9e4c43db40317010VgnVCM100000dc0ca8c0RCRD&vgnextoid=38f415a11a81c010VgnVCM1000000b205a0aRCRD";"CARRION DE LOS CONDES";"CALLE";"V";"73";"";"";"";"";"MADRID";"MADRID";"28033";"APOSTOL SANTIAGO";"HORTALEZA";"444325";"4481016";"40.4760846979538";"-3.6581195337045274";"913 835 941";"";"";"/contenido/entidadesYorganismos/CentrosCulturales"; 
4568753;"Centro Social Polivalente de Vicálvaro";"";" De lunes a viernes de 9 a 21 horas ";" 
 Sede del Consejo Territorial del distrito 
 Sede de la Mesa de Infancia y Adolescencia 
 Sede de la Mesa de Diálogo y la Convivencia 
 Punto de Agente de Igualdad 
 Sede del conjunto de actividades de Participación Ciudadana. 
 
 Dispone de 3 salas de reuniones, 13 despachos y 1 sala de exposición ";" Bus: 100, 130 ";"";"1";"http://www.madrid.es/vgn-ext-templating/v/index.jsp?vgnextchannel=9e4c43db40317010VgnVCM100000dc0ca8c0RCRD&vgnextoid=59c6ca957d152110VgnVCM1000000b205a0aRCRD";"REAL";"AVENIDA";"V";"12";"";"";"";"y 14";"MADRID";"MADRID";"28032";"CASCO H.VICALVARO";"VICALVARO";"448599";"4472815";"40.40248118658274";"-3.6070352433899013";"917 602 468 (centralita)";"";"";"/contenido/entidadesYorganismos/CentrosCulturales"; 
56495;"Centro Sociocultural  Siena (Ciudad Lineal)";"";" Secretaría: de lunes a viernes de 9 a 14 horas y de 17 a 19 horas 
 Agosto cerrado ";" 
 Sala de lectura y estudio 
 3 aulas 
 Zona wifi 
 ";" Metro: Quintana (línea 5)  
 Bus: 21, 38, 48, 106, 146. ";"";"0";"http://www.madrid.es/vgn-ext-templating/v/index.jsp?vgnextchannel=9e4c43db40317010VgnVCM100000dc0ca8c0RCRD&vgnextoid=1114c2c6e051c010VgnVCM2000000c205a0aRCRD";"SIENA";"CALLE";"V";"52";"";"";"";"";"MADRID";"MADRID";"28027";"QUINTANA";"CIUDAD LINEAL";"444818";"4476248";"40.43316516575713";"-3.651876723048774";"914 039 011";"";"cscsiena@madrid.es";"/contenido/entidadesYorganismos/CentrosCulturales"; 
1936;"Centro Sociocultural Alberto Sánchez (Puente de Vallecas)";"";" Secretaría: de lunes a viernes de 9 a 14 y de 17 a 19 horas. ";" 
 Sala de exposiciones 
 2 salones de actos / auditorio (80 y 350 personas) 
 Sala de ensayo 
 9 aulas 
 Zona wifi 
 Cafetería 
 ";" Metro: Buenos Aires, Portazgo (línea 1) 
 Bus: 54, 58, 103, 136, 141, 143 ";"";"1";"http://www.madrid.es/vgn-ext-templating/v/index.jsp?vgnextchannel=9e4c43db40317010VgnVCM100000dc0ca8c0RCRD&vgnextoid=20a43d0b5e71c010VgnVCM1000000b205a0aRCRD";"RISCO DE PELOCHE";"CALLE";"V";"14";"";"";"";"";"MADRID";"MADRID";"28038";"NUMANCIA";"PUENTE DE VALLECAS";"444469";"4471860";"40.393612303425975";"-3.6556073868098493";"917 570 320 / 917 570 321";"";"cscalbertosanchez@madrid.es";"/contenido/entidadesYorganismos/CentrosCulturales"; 
72862;"Centro Sociocultural Alfonso XII (Fuencarral - El Pardo)";"";" Secretaría: de lunes a viernes de 9 a 15 horas  ";"  Sala de exposiciones  Sala de lectura y estudio  Salón de actos / auditorio  6 aulas  Cafetería  Zona wifi  ";"Bus: 601 (salida desde el Intercambiador de Moncloa).";"En la misma sede está ubicada la sala de estudio Alfonso XII.  ";"1";"http://www.madrid.es/vgn-ext-templating/v/index.jsp?vgnextchannel=9e4c43db40317010VgnVCM100000dc0ca8c0RCRD&vgnextoid=b7d168540e41c010VgnVCM2000000c205a0aRCRD";"MIRA EL RIO";"CALLE";"V";"4";"";"";"";"";"MADRID";"MADRID";"28048";"EL PARDO";"FUENCARRAL-EL PARDO";"434214";"4485937";"40.519673311658686";"-3.7779055687726535";"913 762 060 / 913 762 062";"";"ccelpardo@madrid.es";"/contenido/entidadesYorganismos/CentrosCulturales"; 
1974;"Centro Sociocultural Aula de Aire Libre (Puente de Vallecas)";"";" Secretaría: de lunes a viernes de 9 a 14 y de 17 a 19 horas. ";"";" Bus: 24, 57, 103, 111, 310 ";"";"0";"http://www.madrid.es/vgn-ext-templating/v/index.jsp?vgnextchannel=9e4c43db40317010VgnVCM100000dc0ca8c0RCRD&vgnextoid=314e1e79ee71c010VgnVCM1000000b205a0aRCRD";"SIERRA CARBONERA";"CALLE";"V";"74";"";"";"";"";"MADRID";"MADRID";"28053";"SAN DIEGO";"PUENTE DE VALLECAS";"443641";"4471476";"40.39009728291889";"-3.665329063724782";"917 570 189 / 917 570 241";"";"aalibrepvallecas@madrid.es";"/contenido/entidadesYorganismos/CentrosCulturales"; 
1927;"Centro Sociocultural Blasco Ibáñez (Carabanchel)";"";" Secretaría: 
 
 Mañanas: de lunes a viernes de 10 a 13 horas 
 Tardes. de lunes a jueves de 16.30 a 18:30 horas   
 
  AGOSTO: CERRADO  ";" 
 5 aulas 
 2 gimnasios 
 ";" Bus: 119 ";"";"0";"http://www.madrid.es/vgn-ext-templating/v/index.jsp?vgnextchannel=9e4c43db40317010VgnVCM100000dc0ca8c0RCRD&vgnextoid=fb453d0b5e71c010VgnVCM1000000b205a0aRCRD";"SOLDADO JOSE MARIA REY";"CALLE";"V";"44";"";"";"";"";"MADRID";"MADRID";"28019";"SAN ISIDRO";"CARABANCHEL";"437922";"4472060";"40.394959912881816";"-3.732764798621339";"914 280 554 / 914 280 555";"";"ccblascoibanez@madrid.es";"/contenido/entidadesYorganismos/CentrosCulturales"; 
1949;"Centro Sociocultural Bohemios (Villaverde)";"";" Secretaría: de lunes a viernes de 9 a 13:30 y de 17 a 19 horas. 
 Durante el mes de  julio el horario será de 9 a 14 horas. ";" 
 Sala de exposiciones 
 Salón de actos / auditorio 
 7 aulas 
 Cafetería 
 Zona wifi 
 ";" Bus: 22 , 59 , 79 , 85 ";"";"1";"http://www.madrid.es/vgn-ext-templating/v/index.jsp?vgnextchannel=9e4c43db40317010VgnVCM100000dc0ca8c0RCRD&vgnextoid=42753d0b5e71c010VgnVCM1000000b205a0aRCRD";"LOS BOHEMIOS";"CALLE";"V";"1";"";"";"";"";"MADRID";"MADRID";"28041";"LOS ANGELES";"VILLAVERDE";"441175";"4467754";"40.35639654251886";"-3.6940501846610894";"917 109 260 ";"";"ccbohemios@madrid.es";"/contenido/entidadesYorganismos/CentrosCulturales"; 
1967;"Centro Sociocultural Ciudad Lineal";"";" Secretaría: de lunes a viernes de 9 a 14 horas y de 17 a 19 horas 
 Agosto cerrado ";" 
 Sala de lectura y estudio 
 8 aulas 
 Zona wifi 
 ";" Bus: 15, 28, 110, 113, 210 ";"";"0";"http://www.madrid.es/vgn-ext-templating/v/index.jsp?vgnextchannel=9e4c43db40317010VgnVCM100000dc0ca8c0RCRD&vgnextoid=16f81e79ee71c010VgnVCM1000000b205a0aRCRD";"JOSE LUIS DE ARRESE";"CALLE";"V";"81";"";"";"";"";"MADRID";"MADRID";"28017";"VENTAS";"CIUDAD LINEAL";"444826";"4475103";"40.422850906984415";"-3.651682839770605";"914 055 840                       
";"";"cscciudadlineal@madrid.es";"/contenido/entidadesYorganismos/CentrosCulturales"; 
1912;"Centro Sociocultural Clara del Rey (Centro)";"";" Secretaría: de lunes a viernes de 9 a 14 horas y además martes y jueves además de 16 a 18:30 horas ";" 5 aulas y gimnasio ";" Metro: Noviciado (línea 2). 
 Bus: 3, 147. ";"";"1";"http://www.madrid.es/vgn-ext-templating/v/index.jsp?vgnextchannel=9e4c43db40317010VgnVCM100000dc0ca8c0RCRD&vgnextoid=1e163d0b5e71c010VgnVCM1000000b205a0aRCRD";"PALMA";"CALLE";"V";"36";"";"";"";"";"MADRID";"MADRID";"28004";"UNIVERSIDAD";"CENTRO";"440311";"4475538";"40.42646635574924";"-3.704943545703863";"915 222 823 / 915 324 171";"";"ccclararey@madrid.es";"/contenido/entidadesYorganismos/CentrosCulturales"; 
118935;"Centro Sociocultural Cánovas del Castillo (Usera)";"";" Secretaría para atención al público: 
 Invierno: 
 
 De lunes a jueves: de 9:30 a 13:30 y de 17 a 19 horas 
 Viernes: de 9:30 a 13:30 horas 
 
 Verano: 
 
 Julio: de lunes a viernes de 10 a 13:30 horas 
 Agosto cerrado 
 ";" 
 1 sala de exposiciones 
 1 sala de lectura y estudio 
 6 aulas 
 Zona wifi 
 ";" Metro: Almendrales (línea 3) 
 Bus: 6, 18, 22, 23, 47, 59, 76, 78, 79, 85, 86, 123, 247 ";"";"1";"http://www.madrid.es/vgn-ext-templating/v/index.jsp?vgnextchannel=9e4c43db40317010VgnVCM100000dc0ca8c0RCRD&vgnextoid=1087cbf06c81c010VgnVCM1000000b205a0aRCRD";"JULIO AGUIRRE";"CALLE";"V";"10";"";"";"";"";"MADRID";"MADRID";"28026";"ALMENDRALES";"USERA";"440689";"4471073";"40.38626143332092";"-3.7000825227295007";"915 005 489";"";"canovascastillocs@madrid.es";"/contenido/entidadesYorganismos/CentrosCulturales"; 
1941;"Centro Sociocultural Eduardo Chillida (Moratalaz)";"";" Secretaría:  
 
 De lunes a viernes de 9 a 14 y de 17 a 19 horas 
 Sábados y domingos cerrado 
 Agosto cerrado 
 ";" 
 Sala de exposiciones 
 9 aulas 
  Zona wifi  
  Ascensor  
  2 gimnasios  
  Aula polivalente (70 personas)  
 ";" Metro: Vinateros (línea 9) 
 Bus: 30, 32, 71, 113 ";"";"1";"http://www.madrid.es/vgn-ext-templating/v/index.jsp?vgnextchannel=9e4c43db40317010VgnVCM100000dc0ca8c0RCRD&vgnextoid=01963d0b5e71c010VgnVCM1000000b205a0aRCRD";"ARROYO BELINCOSO";"CALLE";"V";"9";"";"";"";"";"MADRID";"MADRID";"28030";"MEDIA LEGUA";"MORATALAZ";"444686";"4473610";"40.40939173676513";"-3.653214777359331";"913 339 141 / 913 339 142";"";"ccechillida@madrid.es";"/contenido/entidadesYorganismos/CentrosCulturales"; 
26904;"Centro Sociocultural El Greco (Latina)";" Calle El Greco con vuelta a calle Villamanín. ";" Secretaría: de lunes a viernes de 9 a 14 horas y de 16:30 a 19 horas. ";" 
 Sala de exposiciones 
 Sala de lectura y estudio  
 Salón de actos / auditorio. Aforo 100 personas. 
 5 aulas 
 Cafetería 
 Zona wifi 
 ";" Metro: Lucero (línea 6) 
 Bus: 31, 33, 36, 39, 65 ";"";"1";"http://www.madrid.es/vgn-ext-templating/v/index.jsp?vgnextchannel=9e4c43db40317010VgnVCM100000dc0ca8c0RCRD&vgnextoid=cae2b3e42751c010VgnVCM2000000c205a0aRCRD";"EL GRECO";"CALLE";"V";"29";"";"";"";"";"MADRID";"MADRID";"28011";"LUCERO";"LATINA";"436687";"4473443";"40.407316328180464";"-3.747465416906973";"914 793 261 / 914 793 150";"";"ccgreco@madrid.es";"/contenido/entidadesYorganismos/CentrosCulturales"; 
1944;"Centro Sociocultural Francisco Fatou (Villa de Vallecas)";"";" Secretaría: 
 
 De lunes a viernes de 9 a 19:30 horas (ininterrumpidamente septiembre a julio). 
 De 9 a 14 horas (agosto). 
 ";" 
 Sala de exposiciones 
 Salón de actos / auditorio (aforo: 94 personas) 
 5 aulas 
 Zona wifi 
 ";" Metro: Villa de Vallecas (línea 1) 
 Bus: 54, 58, 103, 142, 143 ";"";"1";"http://www.madrid.es/vgn-ext-templating/v/index.jsp?vgnextchannel=9e4c43db40317010VgnVCM100000dc0ca8c0RCRD&vgnextoid=d9e73d0b5e71c010VgnVCM1000000b205a0aRCRD";"MANUEL VELEZ";"CALLE";"V";"10";"";"";"";"";"MADRID";"MADRID";"28031";"CASCO H.VALLECAS";"VILLA DE VALLECAS";"447216";"4470283";"40.379584618162156";"-3.623110349262379";"913 806 620                 
";"";"ccfranciscofatou@madrid.es";"/contenido/entidadesYorganismos/CentrosCulturales"; 
1926;"Centro Sociocultural García Lorca (Carabanchel)";"";" Secretaría: de lunes a viernes de 10 a 13 horas y de lunes a jueves de 16:30 a 18:30 horas 
  AGOSTO: CERRADO  ";" 
 Salón de actos / auditorio 
 7 aulas 
 3 gimnasios 
 ";" Metro: Carabanchel Alto (línea 11) 
 Bus: 34, 35, 47, 121, 131, 139 ";"";"1";"http://www.madrid.es/vgn-ext-templating/v/index.jsp?vgnextchannel=9e4c43db40317010VgnVCM100000dc0ca8c0RCRD&vgnextoid=e6773d0b5e71c010VgnVCM1000000b205a0aRCRD";"EUGENIA DE MONTIJO";"CALLE";"V";"105";"";"";"";"";"MADRID";"MADRID";"28044";"BUENAVISTA";"CARABANCHEL";"436352";"4469770";"40.37420290010211";"-3.7510337449848636";"915 110 370                      
";"";"ccgarcialorca@madrid.es";"/contenido/entidadesYorganismos/CentrosCulturales"; 
1947;"Centro Sociocultural José Espronceda (Tetuán)";"";" Secretaría: Mañanas: de lunes a viernes de 9:30 a 13:30 y Tardes: de lunes a jueves de 16:30 a 18 horas.  
  Agosto:  Cerrado ";" 
 1 Salón de actos / auditorio (aforo 96 personas) 
 7 aulas 
 Zona wifi 
 ";" Metro: Cuatro Caminos (líneas 1, 2, 6) 
 Bus: 3, 64, 66, 124, 128, 149 ";" Sobre accesibilidad: el edifico fue construido en el año 1986. Se corresponde con el proyecto inicial del edificio, debiendo cumplir en su día con la normativa existente al respecto. ";"1";"http://www.madrid.es/vgn-ext-templating/v/index.jsp?vgnextchannel=9e4c43db40317010VgnVCM100000dc0ca8c0RCRD&vgnextoid=23881e79ee71c010VgnVCM1000000b205a0aRCRD";"ALMANSA";"CALLE";"V";"9";"";"";"";"";"MADRID";"MADRID";"28039";"BELLAS VISTAS";"TETUAN";"440367";"4477999";"40.44863106357685";"-3.7045265016586013";"915 536 160                       
";"";"cscjespronceda@madrid.es";"/contenido/entidadesYorganismos/CentrosCulturales"; 
6080683;"Centro Sociocultural Juvenil Ciudad Lineal";"";" Secretaría: de lunes a viernes de 9 a 14 horas y de 17 a 19 horas ";" 
 Sala de ensayo 
 3 aulas 
 ";" Metro: La Elipa (línea 2). 
 Bus: 15, 28, 110, 113, 210. ";"";"1";"http://www.madrid.es/vgn-ext-templating/v/index.jsp?vgnextchannel=9e4c43db40317010VgnVCM100000dc0ca8c0RCRD&vgnextoid=aa306f6bbd020310VgnVCM2000000c205a0aRCRD";"MARIA TERESA SAENZ DE HEREDIA";"CALLE";"V";"50";"";"";"";"";"MADRID";"MADRID";"28017";"VENTAS";"CIUDAD LINEAL";"444921";"4475427";"40.42577598662312";"-3.6505911581086794";"913 260 952";"";"";"/contenido/entidadesYorganismos/CentrosCulturales"; 
124354;"Centro Sociocultural Juvenil Moratalaz";"";"  Secretaría:  de lunes a viernes: de 9 a 14 horas y de 17 a 19 horas 
     ";" 
 Sala de exposiciones 
 Sala de lectura y estudio 
 5 aulas 
 Zona wifi 
 Aula Multimedia La Tarde Más Joven 
 ";" Metro: Pavones (línea 9) 
 Bus: 8, 20, 63, 71, 140, 142, 144 ";" En la misma sede se encuentra la Oficina de información juvenil. ";"1";"http://www.madrid.es/vgn-ext-templating/v/index.jsp?vgnextchannel=9e4c43db40317010VgnVCM100000dc0ca8c0RCRD&vgnextoid=bf388899fc81c010VgnVCM1000000b205a0aRCRD";"FUENTE CARRANTONA";"CALLE";"V";"10";"";"";"";"";"MADRID";"MADRID";"28030";"PAVONES";"MORATALAZ";"446083";"4472471";"40.399222766804556";"-3.6366543437448824";"915 880 459 / 915 887 435 / 915 887 459";"";"ccjmoratalaz@madrid.es";"/contenido/entidadesYorganismos/CentrosCulturales"; 
102131;"Centro Sociocultural Latina";"";" Secretaría: de lunes a viernes de 9:30 a 14:30 horas y de 16:30 a 18:30 horas ";" 
 1 sala de lectura 
 1 sala de exposiciones 
 6 aulas 
 Zona wifi 
 1 sala de audiovisuales 
 ";" Bus: 17, 34, 117, 155 ";"  En la misma sede:  
 
 Oficina de información juvenil 
 Sala de Estudio Latina 
 ";"0";"http://www.madrid.es/vgn-ext-templating/v/index.jsp?vgnextchannel=9e4c43db40317010VgnVCM100000dc0ca8c0RCRD&vgnextoid=a4ed8899fc81c010VgnVCM1000000b205a0aRCRD";"RODRIGO DE ARANA";"CALLE";"V";"50";"";"";"";"";"MADRID";"MADRID";"28044";"LAS AGUILAS";"LATINA";"435092";"4470384";"40.3796366471018";"-3.7659492448759053";"915 095 470 / 471               
";"";"juvenlatina@madrid.es";"/contenido/entidadesYorganismos/CentrosCulturales"; 
1918;"Centro Sociocultural Lavapiés (Centro)";"";" Secretaría: de lunes a viernes de 9 a 14 horas 
 Lunes a jueves de 15:30 a 17 horas ";" 
 Salón de actos / auditorio 
 9 aulas 
 Zona wifi 
 ";" Metro: Lavapiés (línea 3). 
 Bus: M1 ";"";"0";"http://www.madrid.es/vgn-ext-templating/v/index.jsp?vgnextchannel=9e4c43db40317010VgnVCM100000dc0ca8c0RCRD&vgnextoid=5f891e79ee71c010VgnVCM1000000b205a0aRCRD";"OLIVAR";"CALLE";"V";"46";"";"";"";"";"MADRID";"MADRID";"28012";"EMBAJADORES";"CENTRO";"440583";"4473672";"40.40966697102759";"-3.701574291636879";"915 060 712 /0 775";"";"cclavapies@madrid.es";"/contenido/entidadesYorganismos/CentrosCulturales"; 
1961;"Centro Sociocultural Luis Gonzaga (Chamartín)";"";" Secretaría: de lunes a jueves de 9:30 a 14 horas y de 16:30 a 18:30 horas, los viernes de 9:30 a 14 horas  y de 16:30 a 17:30 horas. ";" 
 Salas de lectura y estudio 
 7 aulas 
 Zona wifi 
 Club de ajedrez 
 ";" Metro: Cruz del Rayo (línea 9) 
 Bus: 1, 29, 52 ";" En la misma sede se encuentra la Oficina de información juvenil. ";"1";"http://www.madrid.es/vgn-ext-templating/v/index.jsp?vgnextchannel=9e4c43db40317010VgnVCM100000dc0ca8c0RCRD&vgnextoid=ba8b3d232e91f010VgnVCM1000000b205a0aRCRD";"PRINCIPE DE VERGARA";"CALLE";"V";"142";"";"";"";"";"MADRID";"MADRID";"28002";"CIUDAD JARDIN";"CHAMARTIN";"442605";"4477567";"40.44489723228663";"-3.6780972922453685";"915 886 596 / 915 885 219";"";"";"/contenido/entidadesYorganismos/CentrosCulturales"; 
1909;"Centro Sociocultural Maestro Alonso (Salamanca)";"";" Secretaría: de lunes a jueves de 9 a 14 y de 15 a 18 horas. Viernes de  de 9 a 14 y de 15 a 17 horas ";" 
 Exposiciones ( h all   de entrada de la planta baja y de la primera planta)  
 Sala de lectura y estudio 
 Salón de actos / auditorio 
 3 salas de ensayo 
 14 aulas 
 Cafetería 
 Zona wifi 
 ";" Metro: Ventas (líneas 2, 5) 
 Bus: 12, 21, 38, 53, 106, 110, 146 ";"";"1";"http://www.madrid.es/vgn-ext-templating/v/index.jsp?vgnextchannel=9e4c43db40317010VgnVCM100000dc0ca8c0RCRD&vgnextoid=783f1e79ee71c010VgnVCM1000000b205a0aRCRD";"MAESTRO ALONSO";"CALLE";"V";"6";"";"";"";"";"MADRID";"MADRID";"28028";"FUENTE DEL BERRO";"SALAMANCA";"443715";"4475837";"40.42938854032785";"-3.664855511110751";"917 268 800 / 913 560 807   
";"";"";"/contenido/entidadesYorganismos/CentrosCulturales"; 
170066;"Centro Sociocultural Marconi (Villaverde)";"";" Secretaría: de lunes a jueves de 9:30 a 13:30 y de 16:30 a 19:30 y viernes de 9:30 a 13:30 horas. 
 Durante el mes de  julio el horario será de 9 a 14 horas, de lunes a viernes. ";" 
 Sala de exposiciones 
 Sala de lectura y estudio 
 3 aulas 
 Cafetería 
 Zona wifi 
 ";" Bus: 79 
 Renfe: San Cristóbal Industrial ";"";"1";"http://www.madrid.es/vgn-ext-templating/v/index.jsp?vgnextchannel=9e4c43db40317010VgnVCM100000dc0ca8c0RCRD&vgnextoid=6cb0085f5181c010VgnVCM1000000b205a0aRCRD";"COLONIA MARCONI";"ACCESO";"V";"4";"";"";"";"calle Eustaquio 25 (frente a fachada)";"MADRID";"MADRID";"28021";"SAN ANDRES";"VILLAVERDE";"440582";"4465356";"40.334751832113774";"-3.700809560921597";"917 100 232";"";"ccmarconi@madrid.es";"/contenido/entidadesYorganismos/CentrosCulturales"; 
1970;"Centro Sociocultural Miguel de Cervantes (San Blas - Canillejas)";"";" Secretaría: de lunes a viernes de 10 a 14 horas. 
 Excepto: 
 
 junio y septiembre de 10 a 14 horas y de 17 a 19 horas 
 agosto cerrado 
 
  Horario Sala de estudio:  
 
 Lunes a viernes de 10 a 21 horas. Sábados, domingos y festivos de 10:00 a 14:30 
 y de 16:30 a 20 oras (Ampliación horario hasta las 23 horas. 16 de agosto-30 de septiembre 
 ";" 
 Sala de exposiciones 
 2 salas de lectura y estudio 
 Salón de actos / auditorio (afoto:125) 
 4 aulas 
 Zona wifi 
 ";" Bus: 28, 38, 48, 140, 153 ";"";"0";"http://www.madrid.es/vgn-ext-templating/v/index.jsp?vgnextchannel=9e4c43db40317010VgnVCM100000dc0ca8c0RCRD&vgnextoid=24be1e79ee71c010VgnVCM1000000b205a0aRCRD";"ALIAGA";"CALLE";"V";"5";"";"";"";"";"MADRID";"MADRID";"28022";"CANILLEJAS";"SAN BLAS-CANILLEJAS";"448257";"4476610";"40.43664778776818";"-3.611362970564875";"917 430 078";"";"ccmcervantes@madrid.es";"/contenido/entidadesYorganismos/CentrosCulturales"; 
5514552;"Centro Sociocultural Montecarmelo (Fuencarral - El Pardo)";"";" Secretaría: de lunes a jueves de 9 a 13:30 y de 16 a 20:30. Viernes de 9:30 a 13:30 horas. ";"  Sala de exposiciones  Sala de lectura y estudio  Salón de actos / auditorio  6 aulas  ";"Bus: 134 , 178";"";"1";"http://www.madrid.es/vgn-ext-templating/v/index.jsp?vgnextchannel=9e4c43db40317010VgnVCM100000dc0ca8c0RCRD&vgnextoid=30f2b51ae6295210VgnVCM2000000c205a0aRCRD";"M-607";"CARRETERA";"T";"Km. 1300";"";"";"";"";"MADRID";"MADRID";"28049";"EL GOLOSO";"FUENCARRAL-EL PARDO";"442001";"4485504";"40.51635495615339";"-3.685946562681175";"917 364 151 / 917 364 329";"";"ccmontecarmelo@madrid.es";"/contenido/entidadesYorganismos/CentrosCulturales"; 
1964;"Centro Sociocultural Oporto (Carabanchel)";"";" Secretaría: de lunes a viernes de 10 a 13 horas y de lunes a jueves de 16:30 a 18:30 horas. 
  AGOSTO: CERRADO  ";" 
 Sala de lectura y estudio 
 Salón de actos / auditorio 
 4 aulas 
 3 gimnasios 
 Cafetería 
 ";" Metro: Oporto (líneas 5, 6) , Opañel (línea 6) 
 Bus: 55, 81, 108, 118, 247 ";"";"1";"http://www.madrid.es/vgn-ext-templating/v/index.jsp?vgnextchannel=9e4c43db40317010VgnVCM100000dc0ca8c0RCRD&vgnextoid=357a1e79ee71c010VgnVCM1000000b205a0aRCRD";"OPORTO";"AVENIDA";"V";"78";"";"";"";"";"MADRID";"MADRID";"28019";"OPAÑEL";"CARABANCHEL";"438341";"4471156";"40.38684744124125";"-3.727740326743959";"914 603 801   / 914 603 912                 
";"";"ccoporto@madrid.es";"/contenido/entidadesYorganismos/CentrosCulturales"; 
1924;"Centro Sociocultural Rafael de León (Fuencarral - El Pardo)";"";" Secretaría: de lunes a viernes de 9 a 13:30 y de 17 a 19 horas.  ";"  Salón de actos / auditorio  8 aulas  Zona wifi  ";" Metro: Avenida de la Ilustración (línea 7)  Bus: 49 , 64 , 67 , 83 , 133 ";"";"1";"http://www.madrid.es/vgn-ext-templating/v/index.jsp?vgnextchannel=9e4c43db40317010VgnVCM100000dc0ca8c0RCRD&vgnextoid=7e0b1e79ee71c010VgnVCM1000000b205a0aRCRD";"ISLA DE ONS";"CALLE";"V";"14";"";"";"";"";"MADRID";"MADRID";"28035";"PEÑA GRANDE";"FUENCARRAL-EL PARDO";"438959";"4481521";"40.48025613358832";"-3.7214686777952974";"917 310 350";"";"ccreleon@madrid.es";"/contenido/entidadesYorganismos/CentrosCulturales"; 
1950;"Centro Sociocultural San Cristóbal de los Ángeles (Villaverde)";"";" Secretaría: de lunes a viernes de 9 a 13 y de 16 a 18 horas. 
 Durante el mes de julio el horario será de 9 a 13 horas. ";" 
 Sala de exposiciones 
 Sala de lectura y estudio 
 Salón de actos 
 6 aulas 
 Zona wifi 
 ";" Metro: San Cristóbal (línea 3) 
 Bus: 59, 79, ";"";"1";"http://www.madrid.es/vgn-ext-templating/v/index.jsp?vgnextchannel=9e4c43db40317010VgnVCM100000dc0ca8c0RCRD&vgnextoid=7f4a79262ef5d010VgnVCM1000000b205a0aRCRD";"PINAZO";"PLAZA";"V";"9";"1ª";"";"";"";"MADRID";"MADRID";"28021";"SAN CRISTOBAL";"VILLAVERDE";"441460";"4466191";"40.34233618931469";"-3.6905504735084342";"917 100 410 / 917 100 413";"";"ccscangeles@madrid.es";"/contenido/entidadesYorganismos/CentrosCulturales"; 
43311;"Centro Sociocultural San José de Calasanz (Latina)";"     
   ";" Secretaría del centro: 
 
 De lunes a viernes de 9 a 13:30 horas y de 16:30 a 18 horas.  
 Horario de verano consultar. 
 
 Salas de estudio y lectura: 
 
  Horario de invierno: de lunes a viernes de 9:30 a 21 horas, y sábados de 9:30 a 13 horas.  
 Horario de verano: de lunes a viernes de 9 a 20 horas, y sábados de 9:30 a 13 horas. 
 Agosto cerrado. 
 ";" 
 Sala de exposiciones 
 2 salas de lectura y estudio 
 Salón de actos / auditorio, aforo 90 personas. 
 9 aulas 
 Zona wifi 
 Cafetería. 
 ";" Bus: 119, 138 ";" En la misma sede están ubicadas las salas de estudio 'Escritor Pedro de Répide' y 'Arquitecto Juan de Herrera' con 16 puestos de lectura cada una. ";"0";"http://www.madrid.es/vgn-ext-templating/v/index.jsp?vgnextchannel=9e4c43db40317010VgnVCM100000dc0ca8c0RCRD&vgnextoid=2bae598d1351c010VgnVCM1000000b205a0aRCRD";"MARIA DEL CARMEN";"CALLE";"V";"65";"";"";"";"";"MADRID";"MADRID";"28011";"PUERTA DEL ANGEL";"LATINA";"437939";"4473339";"40.40647389284976";"-3.7327010920242043";"914 649 304";"";"cccalasanz@madrid.es";"/contenido/entidadesYorganismos/CentrosCulturales"; 
117716;"Centro Sociocultural Santa Petronila (Villaverde)";"";" Secretaría: de lunes a viernes de 9:30 a 13:30 y de 17 a 19 horas. 
 (Durante el mes de julio el horario de oficina será de 9 a 14 horas). ";" 
 Sala de lectura y estudio 
 Salón de actos / auditorio 
 Cafetería comedor 
 Zonas de exposiciones en planta primera y segunda 
 16 aulas 
 Ascensor 
 Aseos adaptados 
 Cambiador de bebe en planta baja 
 Zona wifi 
 ";" Metro: Villaverde Bajo Cruce (línea 3) 
 Bus: 59 , 79 , 85 , 123 
 Renfe: Villaverde Bajo ";" En la misma sede se encuentra la Oficina de información juvenil y el Espacio de Igualdad Clara Campoamor. ";"1";"http://www.madrid.es/vgn-ext-templating/v/index.jsp?vgnextchannel=9e4c43db40317010VgnVCM100000dc0ca8c0RCRD&vgnextoid=03f7cbf06c81c010VgnVCM1000000b205a0aRCRD";"MARIA MARTINEZ OVIOL";"CALLE";"V";"12";"";"";"";"";"MADRID";"MADRID";"28021";"LOS ROSALES";"VILLAVERDE";"441386";"4467139";"40.35087114162283";"-3.691508909255186";"917 109 710";"";"ccspetronila@madrid.es";"/contenido/entidadesYorganismos/CentrosCulturales"; 
1937;"Centro Sociocultural Talleres de Creatividad (Puente de Vallecas)";"";" Secretaría: de lunes a viernes de 9 a 14 y de 17 a 18:30 horas. ";" 
 22 Sala de lectura y estudio 
 7 aulas 
 Zona wifi 
 Cafetería 
 ";" Metro: Nueva Numancia, Portazgo (línea 1) 
 Bus: 10, 24, 57, 103, 111, 310 ";"";"0";"http://www.madrid.es/vgn-ext-templating/v/index.jsp?vgnextchannel=9e4c43db40317010VgnVCM100000dc0ca8c0RCRD&vgnextoid=b7ab1e79ee71c010VgnVCM1000000b205a0aRCRD";"SIERRA CARBONERA";"CALLE";"V";"74";"";"";"";"";"MADRID";"MADRID";"28053";"SAN DIEGO";"PUENTE DE VALLECAS";"443641";"4471476";"40.39009728291889";"-3.665329063724782";"917 570 189 / 917 570 240";"";"ctcepvallecas@madrid.es";"/contenido/entidadesYorganismos/CentrosCulturales"; 
1948;"Centro Sociocultural Tetuán";"";" Secretaría: de lunes a jueves de 9:30 a 13:30 y de 17 a 18:30 horas. Viernes de 9:30 a 13:30 horas. 
  Julio:  abre hasta las 18 horas 
  Agosto:  Cerrado ";" 
 1 Salón de actos / auditorio (aforo: 80 personas) 
 8 aulas 
 Zona wifi 
 ";" Metro: Tetuán (línea 1) 
 Bus: 66, 124 ";" Sobre accesibilidad: 
 
 Entrada a mismo nivel de calle con 2 puertas de apertura manual  
 Ascensor a plantas con puerta de apertura manual        
 ";"1";"http://www.madrid.es/vgn-ext-templating/v/index.jsp?vgnextchannel=9e4c43db40317010VgnVCM100000dc0ca8c0RCRD&vgnextoid=0ecb1e79ee71c010VgnVCM1000000b205a0aRCRD";"BRAVO MURILLO";"CALLE";"V";"251";"";"";"";"";"MADRID";"MADRID";"28020";"BERRUGUETE";"TETUAN";"440737";"4479155";"40.45907130615822";"-3.700271645324868";"915 790 851";"";"csctetuan@madrid.es";"/contenido/entidadesYorganismos/CentrosCulturales"; 
1923;"Centro Sociocultural Valle Inclán (Fuencarral - El Pardo)";"";" Secretaría: de lunes a jueves de 9 a 13:30 y de 16:30 a 18:30. Viernes de 9 a 13:30 horas. ";"  Sala de exposiciones  Salón de actos / auditorio  6 aulas  Zona wifi  ";" Bus: 67 , 132 ";"";"1";"http://www.madrid.es/vgn-ext-templating/v/index.jsp?vgnextchannel=9e4c43db40317010VgnVCM100000dc0ca8c0RCRD&vgnextoid=aa1c1e79ee71c010VgnVCM1000000b205a0aRCRD";"ARZOBISPO MORCILLO";"CALLE";"V";"7";"";"";"";"";"MADRID";"MADRID";"28029";"LA PAZ";"FUENCARRAL-EL PARDO";"441343";"4481592";"40.48106787416528";"-3.6933504628706095";"913 230 805";"";"ccvalleinclan@madrid.es";"/contenido/entidadesYorganismos/CentrosCulturales"; 
1908;"Centro Sociocultural Valverde (Fuencarral - El Pardo)";"";" Secretaría: de lunes a viernes de 9 a 13:30 y de 16:30 a 19 horas. ";"  Sala de exposiciones  Salón de actos / auditorio  6 aulas  Zona wifi  ";" Metro: Fuencarral (línea 10)  Bus: 66, 137  ";"";"1";"http://www.madrid.es/vgn-ext-templating/v/index.jsp?vgnextchannel=9e4c43db40317010VgnVCM100000dc0ca8c0RCRD&vgnextoid=f04c1e79ee71c010VgnVCM1000000b205a0aRCRD";"ISLAS AZORES";"PLAZA";"V";"1";"";"";"";"";"MADRID";"MADRID";"28034";"VALVERDE";"FUENCARRAL-EL PARDO";"441808";"4483140";"40.49504564211655";"-3.6880070256093758";"917 364 760                                         
";"";"ccvalverde@madrid.es";"/contenido/entidadesYorganismos/CentrosCulturales"; 
4679597;"Centro Sociocultural Vicálvaro";"";" Secretaría: de 9 a 15 horas (horario normal). De 9 a 14 horas (horario estival). 
   ";" 
 3 aulas 
 Sala de trabajos colectivos 
 Zona wifi 
 ";" Metro: Vicálvaro (línea 9) 
 Bus: 4, 100, 106, 130, E3 ";"";"0";"http://www.madrid.es/vgn-ext-templating/v/index.jsp?vgnextchannel=9e4c43db40317010VgnVCM100000dc0ca8c0RCRD&vgnextoid=05ec3ef2c5ff5110VgnVCM1000000b205a0aRCRD";"LAGO TITICACA";"CALLE";"V";"10";"";"";"";"";"MADRID";"MADRID";"28032";"CASCO H.VICALVARO";"VICALVARO";"448477";"4472784";"40.40219442341818";"-3.6084585863003733";"917 753 200";"";"cscvicalvaro@madrid.es";"/contenido/entidadesYorganismos/CentrosCulturales"; 
1996;"Centro Sociocultural Ágata (Villaverde)";"";" Secretaría: de lunes a jueves de 9 a 13:30 y de 16:30 a 19 horas. 
 Durante el mes de  julio el horario será  de 9 a 14 horas. ";" 
 Sala de exposiciones 
 Sala de lectura y estudio 
 Salón de actos / auditorio 
 11 aulas 
 Cafetería 
 Zona wifi 
 ";" Bus: 22 , 79 , 86 , 130 , 131 ";"";"1";"http://www.madrid.es/vgn-ext-templating/v/index.jsp?vgnextchannel=9e4c43db40317010VgnVCM100000dc0ca8c0RCRD&vgnextoid=d9743d0b5e71c010VgnVCM1000000b205a0aRCRD";"DOCTOR MARTIN AREVALO";"CALLE";"V";"2";"";"";"";"";"MADRID";"MADRID";"28021";"SAN ANDRES";"VILLAVERDE";"439937";"4466650";"40.34636268334182";"-3.708524395897377";"917 109 300";"";"ccagata@madrid.es";"/contenido/entidadesYorganismos/CentrosCulturales"; 
6013703;"CentroCentro Cibeles de Cultura y Ciudadanía";"  CentroCentro  Cibeles de Cultura y Ciudadanía es un punto de acogida e información cultural y un espacio para la reflexión colectiva sobre la vida y la cultura urbanas contemporáneas. Ubicado en el corazón del Paseo del Arte, es un lugar de reunión intercultural, escenario de participación, acción, ocio y aprendizaje. Una fábrica de ideas a imagen de la ciudad. ";"  Exposiciones  
 
 Martes a domingo: de 10 a  20 horas 
 Cerrado: todos los lunes, 1 y 6 de enero, 1 de mayo y 24, 25 y 31 de diciembre 
 
  Mirador  
 
 Martes a domingo: de 10:30 a 13:30 y de 16 a 19 horas 
 Cerrado: todos los lunes, 1 y 6 de enero, 1 de mayo y 24, 25 y 31 de diciembre. 
 
 Venta de entradas en la taquilla de CentroCentro y en  www.centrocentro.org  ";" Centro cultural dedicado a la ciudad. 
  Puesto de atención telefónica 010:  identificado con el logotipo de Lineamadrid, permite a la ciudadanía contactar con el teléfono de información municipal 010, solo con descolgar y de forma  gratuita.  
  Auditorio Caja de Música  
  Galería de Cristal:  horario de visita los sábados y domingos de 10 a 15 horas. Acceso por el Patio de Operaciones de CentroCentro Cibeles. 
 Información cultural y turística: planta 2. Planta principal. 
   Cafetería Colección Cibeles   
 
 Planta 2. Planta principal 
 Horario: de lunes a domingo de 10 a 24 horas 
 Teléfono: 915 231 570 
 Zona wifi 
 
   Tienda librería    
 
 Planta 2. Planta principal. 
 Horario de martes a domingo de 10 a 20 horas  
 
    Zonas de lectura     
    Wifi gratuito     
   Restaurante Palacio de Cibeles   
 
 Planta 6 
 Horario: de lunes a domingo de 13,30 a 16,30 horas y de 20 a 24 horas 
 Teléfono 915 231 454 
 
 Terraza bar 
 
 Planta 6 
 Horario: de lunes a domingo de 10 a 2 horas 
 ";" Metro: Banco de España 
 Tren: Recoletos 
 Autobuses: 1, 2, 202, 5, 9, 10, 14,15,20,27,34,37,45,51,52,53,74,146,150, 203, Línea Expres Aeropuerto 
 Aparcamiento: calle Montalbán 
 Aparcamiento para bicicletas: calle Montalbán, 1 ";"  Visitas comentadas.  Son gratuitas e impartidas exclusivamente por los mediadores de CentroCentro. 
  Visitas guiadas abiertas:  
 
 Martes y jueves, 12 horas. 
 Miércoles y viernes, 18 horas. 
 Duración: 60 minutos, 25 personas máximo. Visita gratuita. 
 Inscripciones 1 hora antes en el mostrador de información (planta 2). Las visitas se podrán suspender si no se llega a un número mínimo de participantes. 
 
  Visitas guiadas para grupos:  
 
 De martes a viernes, 10:30n y 16:30 horas. 
 Duración: 60 minutos. Visita gratuita para grupos hasta 25 personas (para un número superior es preciso solicitar presupuesto). 
 Imprescindible reserva previa con al menos 1 semana de antelación. 
 
  Gymkana CentroCentro en familia:  
 
 CentroCentro ha ideado una gymkana cultural dirigida a padres e hijos para que, a través del juego descubran la gran oferta cultural que ofrece el centro. Buscando las respuestas a un guión de preguntas los equipos recorrerán los diferentes proyectos expositivos y el emblemático edificio. 
 Sábados y domingos, 11 horas. 
 Duración: 90 minutos, 25 personas máximo (5 personas por familia /máximo 2-3 adultos). Actividad gratuita. 
 Inscripciones 1 hora antes en el mostrador de información (planta 2). 
 
  Visitas guiadas al edificio y al salón del pleno:  
 
 Sábados y domingos, 12 y 18 horas. 
 Duración: 60 minutos, 25 personas máximo. 
 Inscripciones 1 hora antes en el mostrador de información (planta 2). 
 
  Uso de cámaras fotográficas:   está permitido tomar fotografías en el edificio con cámaras de mano y efectuar grabaciones con vídeo. No se permite el uso de flash en las áreas expositivas. No se permite el uso de trípodes. Se prohibe la reproducción, distribución o venta de fotografías o grabaciones de vídeo sin previa autorización  
  Exposición: Palacio de Cibeles   
 
 Fotografías. Propone al visitante un recorrido por la historia del Palacio de Cibeles, joya arquitectónica del siglo XX e hito urbanístico y simbólico de la ciudad. 
 Un itinerario de imagenes y documentación gráfica, desde finales del siglo pasado hasta llegar a su transformación actual en sede del Ayuntamiento de Madrid y centro cultural. 
 ";"1";"http://www.madrid.es/vgn-ext-templating/v/index.jsp?vgnextchannel=9e4c43db40317010VgnVCM100000dc0ca8c0RCRD&vgnextoid=5ff519cd7bcee210VgnVCM1000000b205a0aRCRD";"CIBELES";"PLAZA";"V";"1";"";"";"";"Palacio de Cibeles";"MADRID";"MADRID";"28014";"LOS JERONIMOS";"RETIRO";"441386";"4474703";"40.419011767401095";"-3.692206111679657";"010 (915 298 210 si llama desde fuera del municipio de Madrid)";"";"reservas@centrocentro.org, info@centrocentro.org";"/contenido/entidadesYorganismos/CentrosCulturales"; 
4535757;"Consorcio del Centro Sefarad - Israel";" Tiene como objetivos entre otros, impulsar el desarrollo de las relaciones de España con la comunidad y organizaciones judias, sobre todo en los ámbitos cultural, social y científico. ";"";"";" Metro: Sol (líneas 1, 2, 3), Ópera (líneas 2, 5, R), Latina (línea 5)  Bus: 3, 31, 50, 65  Renfe: Sol ";"";"0";"http://www.madrid.es/vgn-ext-templating/v/index.jsp?vgnextchannel=9e4c43db40317010VgnVCM100000dc0ca8c0RCRD&vgnextoid=9d50215a57131110VgnVCM2000000c205a0aRCRD";"MAYOR";"CALLE";"V";"69";"";"";"";"";"MADRID";"MADRID";"28013";"PALACIO";"CENTRO";"439768";"4474305";"40.41531064853993";"-3.7112390711768444";"913 911 002";"913 910 310";"centro@sefarad-israel.es";"/contenido/entidadesYorganismos/Consorcios"; 
1915;"Fernán Gómez. Centro Cultural de la Villa";"";" 
  Atención general:  de 9 a 15 y de 16 a 21 horas. 
  Oficinas:  de lunes a viernes de 9:30 a 14:30 y de 17 a 19 horas. 
  Venta anticipada de entradas en taquillas: 
 
 De martes a domingo de 11 a 13:30 y de 17 a 19 horas. 
 En caso de que la función comienza a las 17:30 la taquilla abre a las 16 horas exclusivamente para esa función. 
 Lunes cerrado. 
 
 
 
  Exposiciones:  varia según la exposición, consultar en la  página web del Centro  
 
 ";" 
 Sala Guirau (aforo 689 personas),en ella se desarrollan los espectáculos principales de teatro de gran formato, ciclos de danza y música, así como espectáculos infantiles. 
 Sala Jardiel Poncela (aforo desde 95 hasta 175 personas, depende de la disposición de la obra que represente), acoge habitualmente una variada programación en la que tienen cabida actividades de disciplinas artísticas relacionadas con las artes escénicas; música, danza, teatro para adultos y bebes, conferencias, debates, encuentros y talleres. 
 Sala de exposiciones (1500  m2 ) 
 Espacios exteriores (21.402  m2 ) 
 Café Colón 
 Venta de catálogos de exposiciones y de libros editados por el Teatro 
 
 En todas las salas y en las taquillas del teatro se dispone del sistema de Bucle Inductivo de audio, para que las personas con problemas de audición puedan comprar sus entradas y disfrutar de los espectáculos en programación. 
 Las personas con movilidad reducida, deben comunicarlo antes de adquirir sus localidades. ";" Metro: Colón (línea 4), Serrano (línea 4) 
 Bus: 1, 5, 9, 14, 19, 21, 27, 37, 45,  51, 53,  74, 150 
 Renfe: Recoletos ";"  Para 2016  
  Venta anticipada de entradas:  a través de Ticketea en el teléfono 902 044 226 y en la web:  http://www.ticketea.com/     
  Gestión de audiencias: precio grupos y otros descuentos:  
 
 Email:  grupos@teatrofernangomez.com  
 Teléfono reservas de grupo: 914 362 540 - Extensión: 208 
 
  Amigos del Teatro  
 
 Email:  amigos@teatrofernangomez.com  
 Teléfono: 914 362 540 - extensión: 240 
 ";"1";"http://www.madrid.es/vgn-ext-templating/v/index.jsp?vgnextchannel=9e4c43db40317010VgnVCM100000dc0ca8c0RCRD&vgnextoid=ba663d0b5e71c010VgnVCM1000000b205a0aRCRD";"COLON";"PLAZA";"V";"4";"";"";"";"";"MADRID";"MADRID";"28001";"RECOLETOS";"SALAMANCA";"441585";"4475358";"40.424926347610764";"-3.6899208519663427";"914 362 540 Ext. 200 (Información general) / Ext. 208 (precios grupos, Amigos del Fernán Gómez y promociones)                       
";"914 358 376";"info@teatrofernangomez.com";"/contenido/entidadesYorganismos/Teatros"; 
4684678;"Matadero Madrid";"";" 
 De martes a viernes de 16 a 21 horas (hasta las 22 horas desde el 5 de mayo al 1 de noviembre). 
 Sábados, domingos y festivos de 11 a 21 horas (hasta las 22 horas desde el 5 de mayo al 1 de noviembre). 
 Lunes, cerrado. 
 Visitas guiadas para grupos de máximo 30 personas, es necesario hacer reserva con al menos una semana de antelación.   Existen visitas guiadas para grupos con discapacidades sensoriales y necesidades específicas.  Horario: Martes de 12 a 14 horas. Viernes de 17 a 19 horas.   La reserva de plazas se pueden realizar en el 915 177 309 o bien a través de  info@mataderomadrid.org . 
 ";" Matadero ofrece tres espacios propios: 
 
 Café Teatro: Horario todos lo días de 12 a 1 horas. 
 Cantina: Situada en Cineteca con horario de martes a domingo de 12 a 1 horas. 
 Terraza Matadero durante los meses de verano, horario de martes a viernes de 16 a 00 horas y sábados y domingos de 12 a 00 horas. 
 ";" Metro :  Legazpi 
 Bus: 6 , 8 , 18 , 19 , 45 , 78 , 148 
 Renfe: Embajadores ";"  Espacios  
 
 Casa del Lector 
 Central de diseño 
 Cineteca 
 Extensión AVAM 
 Factoria Cultural 
 Intermediae 
 Nave de Música 
 Naves del Español 
 ";"0";"http://www.madrid.es/vgn-ext-templating/v/index.jsp?vgnextchannel=9e4c43db40317010VgnVCM100000dc0ca8c0RCRD&vgnextoid=ef686a9ee7336110VgnVCM1000000b205a0aRCRD";"CHOPERA";"PASEO";"V";"14";"";"";"";"PLAZA DE LEGAZPI 8";"MADRID";"MADRID";"28045";"CHOPERA";"ARGANZUELA";"440934";"4471754";"40.39241367848808";"-3.697259467865366";"915 177 309                                                                              
914 730 957 (taquilla)";"915 179 561";"";"/contenido/entidadesYorganismos/SalasExposiciones"; 
4776440;"Medialab - Prado";" Centro  dedicado a la  producción, investigación y difusión de la  cultura digital.  Promueve la  participación de los usuarios a través del desarrollo de  proyectos colaborativos.   Se concibe como un laboratorio ciudadano que explora las formas de experimentación y aprendizaje colaborativo que han surgido de las redes digitales. ";"  Lunes de 16 a 21 horas  Martes, miércoles, jueves y viernes de 10 a 21 horas  Sábados de 11 a 21 horas  Cerrado domingos y festivos; 1 y 6 de enero; 1 al 31 agosto;  24, 25 y 31 diciembre    ";"  Espacio permanente de información, recepción y encuentro atendido por mediadores culturales.  Convocatorias abiertas para la presentación de propuestas y la participación en el desarrollo colaborativo de proyectos    Líneas estables de trabajo:      Interactivos?:  usos creativos de la electrónica y la programación   Inclusiva.net:  investigación y reflexión en torno a la cultura de redes   Visualizar:  estrategias y herramientas de visualización de información   Laboratorio del Procomún:  discusión transdiciplinar sobre los bienes comunes    AVLAB:  creación sonora y audiovisual     ";" Metro y Cercanías: Atocha  Bus: 6, 10, 14, 19, 26, 27, 32, 34, 37 y 45  ";"  Programa de actividades y más información    en el  sitio web de Medialab-Prado   Todas las actividades son gratuitas y de libre acceso, salvo que se requiera inscripción previa. ";"0";"http://www.madrid.es/vgn-ext-templating/v/index.jsp?vgnextchannel=9e4c43db40317010VgnVCM100000dc0ca8c0RCRD&vgnextoid=79f59dacff4d7110VgnVCM1000000b205a0aRCRD";"ALAMEDA";"CALLE";"V";"15";"";"";"";"";"MADRID";"MADRID";"28014";"CORTES";"CENTRO";"441244";"4473766";"40.410560776119";"-3.6937931079230744";"912 191 157";"";"info.m@medialab-prado.es";"/contenido/entidadesYorganismos/CentrosCulturales"; 
10105051;"Sala de Trabajos Colectivos Centro Sociocultural de Vicálvaro";"";" Secretaría: lunes a viernes de 8:30 a 15 horas 
 Agosto cerrado ";" Puestos de lectura: 20 ";" Metro: Vicálvaro (línea 9) 
 Bus: 4, 100, 106, 130, E3 ";"";"0";"http://www.madrid.es/vgn-ext-templating/v/index.jsp?vgnextchannel=9e4c43db40317010VgnVCM100000dc0ca8c0RCRD&vgnextoid=2597a077d6fb5510VgnVCM2000001f4a900aRCRD";"LAGO TITICACA";"CALLE";"V";"10";"";"";"";"";"MADRID";"MADRID";"28032";"CASCO H.VICALVARO";"VICALVARO";"448477";"4472784";"40.40219442341818";"-3.6084585863003733";"917 753 200";"";"cscvicalvaro@madrid.es";"/contenido/entidadesYorganismos/CentrosCulturales"; 
10107814;"Sala de estudio y lectura Arquitecto Juan de Herrera (Latina)";"";" 
  Horario de invierno: de lunes a viernes de 9:30 a 21 horas, y sábados de 9:30 a 13 horas.  
 Horario de verano: de lunes a viernes de 9 a 20 horas, y sábados de 9:30 a 13 horas. 
 Agosto cerrado. 
 ";" 16 puestos de lectura. ";" Bus: 119, 138 ";" En la misma sede están ubicadas las salas de estudio 'Escritor Pedro de Répide' y 'Arquitecto Juan de Herrera' con 16 puestos de lectura cada una. ";"0";"http://www.madrid.es/vgn-ext-templating/v/index.jsp?vgnextchannel=9e4c43db40317010VgnVCM100000dc0ca8c0RCRD&vgnextoid=6a6c61366ded5510VgnVCM1000001d4a900aRCRD";"MARIA DEL CARMEN";"CALLE";"V";"65";"";"";"";"";"MADRID";"MADRID";"28011";"PUERTA DEL ANGEL";"LATINA";"437939";"4473339";"40.40647389284976";"-3.7327010920242043";"914 649 304";"";"";"/contenido/entidadesYorganismos/CentrosCulturales"; 
10107379;"Sala de estudio y lectura Cayetano Pando (Latina)";"";" Secretaría: de lunes a viernes de 8 a 22 horas, sábados de 9 a 14 horas. ";" 64 puestos de lectura. ";" Metro: Lucero (línea 6) y Laguna (línea 6) 
 Cercanías: C5 
  Bus: 33, 138  
  Metro: Lucero (línea 6),  Batán (línea 10) ";"";"1";"http://www.madrid.es/vgn-ext-templating/v/index.jsp?vgnextchannel=9e4c43db40317010VgnVCM100000dc0ca8c0RCRD&vgnextoid=f565aea7089d5510VgnVCM1000001d4a900aRCRD";"CAYETANO PANDO";"CALLE";"V";"8";"";"";"";"";"MADRID";"MADRID";"28011";"LUCERO";"LATINA";"436600";"4473199";"40.40512065478807";"-3.748466414403756";"915 264 475";"";"";"/contenido/entidadesYorganismos/CentrosCulturales"; 
10107362;"Sala de estudio y lectura Cebreros (Latina)";"";" Secretaría: de lunes a viernes de 8 a 22 horas, sábados de 9 a 14 horas. ";" 56 puestos de lectura. ";" Metro: Alto de Extremadura (línea 6) y Puerta del Ángel (línea 6) 
  Bus: 33, 36, 39, 65, 138  
  Metro: Lucero (línea 6),  Batán (línea 10) ";"";"1";"http://www.madrid.es/vgn-ext-templating/v/index.jsp?vgnextchannel=9e4c43db40317010VgnVCM100000dc0ca8c0RCRD&vgnextoid=7d52aea7089d5510VgnVCM1000001d4a900aRCRD";"CEBREROS";"CALLE";"V";"66";"";"";"";"";"MADRID";"MADRID";"28011";"LUCERO";"LATINA";"436600";"4473199";"40.40512065478807";"-3.748466414403756";"914 796 964";"";"";"/contenido/entidadesYorganismos/CentrosCulturales"; 
10107702;"Sala de estudio y lectura Escritor Pedro de Répide (Latina)";"     
   ";" 
  Horario de invierno: de lunes a viernes de 9:30 a 21 horas, y sábados de 9:30 a 13 horas.  
 Horario de verano: de lunes a viernes de 9 a 20 horas, y sábados de 9:30 a 13 horas. 
 Agosto cerrado. 
 ";" 
 Sala de exposiciones 
 2 salas de lectura y estudio 
 Salón de actos / auditorio, aforo 90 personas. 
 9 aulas 
 Zona wifi 
 Cafetería. 
 ";" Bus: 119, 138 ";" En la misma sede están ubicadas las salas de estudio 'Escritor Pedro de Répide' y 'Arquitecto Juan de Herrera' con 16 puestos de lectura cada una. ";"0";"http://www.madrid.es/vgn-ext-templating/v/index.jsp?vgnextchannel=9e4c43db40317010VgnVCM100000dc0ca8c0RCRD&vgnextoid=5e0861366ded5510VgnVCM1000001d4a900aRCRD";"MARIA DEL CARMEN";"CALLE";"V";"65";"";"";"";"";"MADRID";"MADRID";"28011";"PUERTA DEL ANGEL";"LATINA";"437939";"4473339";"40.40647389284976";"-3.7327010920242043";"914 649 304";"";"cccalasanz@madrid.es";"/contenido/entidadesYorganismos/CentrosCulturales"; 
10107309;"Sala de estudio y lectura Maqueda (Latina)";" Calle Maqueda, 5 bloque C ";" Secretaría: de lunes a viernes de 8 a 22 horas, sábados de 9 a 14 horas. ";" 60 puestos de lectura. ";" Metro: Campamento (línea 5) 
  Bus: 25, 121, 131, H  ";"";"1";"http://www.madrid.es/vgn-ext-templating/v/index.jsp?vgnextchannel=9e4c43db40317010VgnVCM100000dc0ca8c0RCRD&vgnextoid=afacaea7089d5510VgnVCM1000001d4a900aRCRD";"MAQUEDA";"CALLE";"V";"5";"";"";"";"";"MADRID";"MADRID";"28011";"LUCERO";"LATINA";"436687";"4473443";"40.407316328180464";"-3.747465416906973";"917 110 369";"";"";"/contenido/entidadesYorganismos/CentrosCulturales"; 
10107172;"Sala de estudio y lectura Paseo de Extremadura (Latina)";"";" Secretaría: de lunes a viernes de 8 a 22 horas, sábados de 9 a 14 horas. ";" 48 puestos de lectura. ";" Metro: Alto de Extremadura (línea 6) y Puerta del Ángel (línea 6) 
  Bus: 31, 33, 36, 39, 65  ";"";"1";"http://www.madrid.es/vgn-ext-templating/v/index.jsp?vgnextchannel=9e4c43db40317010VgnVCM100000dc0ca8c0RCRD&vgnextoid=ae857f23530d5510VgnVCM2000001f4a900aRCRD";"EL GRECO";"CALLE";"V";"29";"";"";"";"";"MADRID";"MADRID";"28011";"LUCERO";"LATINA";"436687";"4473443";"40.407316328180464";"-3.747465416906973";"914 634 249";"";"";"/contenido/entidadesYorganismos/CentrosCulturales"; 



